{"type":"FeatureCollection","features":[{"type":"Feature","properties":{"name":"śląskie"},"geometry":{"type":"MultiPolygon","coordinates":[[[[19.4698,50.9154],[19.4672,50.8886],[19.4898,50.8789],[19.5744,50.908],[19.6139,50.8773],[19.6616,50.8744],[19.6701,50.8487],[19.7279,50.8433],[19.7471,50.866],[19.8194,50.8385],[19.8322,50.8197],[19.8186,50.8207],[19.8234,50.8056],[19.807,50.8022],[19.7884,50.8195],[19.7788,50.8094],[19.7912,50.8096],[19.7754,50.7983],[19.7938,50.7822],[19.7647,50.7777],[19.7702,50.7709],[19.7417,50.7547],[19.7343,50.7697],[19.7058,50.7618],[19.7129,50.7292],[19.759,50.7157],[19.8108,50.7254],[19.8083,50.7059],[19.8717,50.693],[19.8586,50.674],[19.8657,50.6649],[19.837,50.6704],[19.8417,50.6583],[19.8308,50.6536],[19.9202,50.6345],[19.8984,50.616],[19.8619,50.6217],[19.817,50.5729],[19.7897,50.5685],[19.7887,50.5545],[19.8443,50.5559],[19.8551,50.5438],[19.9011,50.5398],[19.9117,50.5118],[19.95,50.5048],[19.974,50.4769],[19.9005,50.4735],[19.8921,50.4662],[19.8998,50.4534],[19.853,50.4474],[19.8474,50.4343],[19.7008,50.4497],[19.6943,50.4351],[19.665,50.4266],[19.6717,50.4158],[19.6582,50.4082],[19.5185,50.4167],[19.4876,50.397],[19.4917,50.366],[19.4565,50.3663],[19.4831,50.3556],[19.4839,50.3236],[19.451,50.3189],[19.4153,50.3317],[19.3984,50.3084],[19.4143,50.298],[19.4003,50.299],[19.3632,50.2606],[19.3237,50.2595],[19.442,50.2266],[19.4154,50.2009],[19.3346,50.188],[19.3676,50.1792],[19.3472,50.1709],[19.3499,50.1505],[19.2706,50.1437],[19.2778,50.1197],[19.2592,50.117],[19.2612,50.1323],[19.2504,50.1317],[19.2121,50.0768],[19.2336,50.0657],[19.168,50.0604],[19.1498,50.0519],[19.1451,50.0308],[19.1366,50.0359],[19.142,50.024],[19.1113,49.9959],[19.1232,49.9885],[19.1102,49.9726],[19.1241,49.9633],[19.0832,49.95],[19.1409,49.938],[19.1849,49.9501],[19.1962,49.8874],[19.1571,49.8651],[19.1709,49.853],[19.2026,49.8716],[19.2709,49.8607],[19.2946,49.85],[19.2866,49.8164],[19.3168,49.7779],[19.366,49.7778],[19.3995,49.7617],[19.4202,49.7722],[19.445,49.734],[19.3709,49.693],[19.4117,49.6728],[19.4594,49.6764],[19.4778,49.6608],[19.4685,49.6439],[19.4808,49.6244],[19.3714,49.5674],[19.3624,49.5361],[19.2643,49.5324],[19.2336,49.5109],[19.2253,49.4543],[19.1857,49.4347],[19.1972,49.4137],[19.1224,49.4026],[19.0727,49.418],[19.027,49.394],[18.9734,49.4001],[18.9687,49.4133],[18.989,49.4313],[18.9608,49.4547],[18.9716,49.5043],[18.9417,49.5189],[18.8373,49.5236],[18.8592,49.5507],[18.8376,49.5622],[18.8391,49.5953],[18.8248,49.6],[18.807,49.6768],[18.7806,49.6854],[18.741,49.6765],[18.7171,49.6835],[18.7096,49.7045],[18.6682,49.7034],[18.6252,49.7224],[18.6291,49.7473],[18.6131,49.7555],[18.5689,49.8292],[18.6057,49.8616],[18.5657,49.8807],[18.5801,49.9055],[18.5737,49.9212],[18.5396,49.9257],[18.547,49.9091],[18.524,49.8995],[18.4909,49.9034],[18.4308,49.9382],[18.3821,49.935],[18.3331,49.9487],[18.3499,49.9294],[18.33,49.9303],[18.3179,49.9157],[18.2792,49.9401],[18.2763,49.9646],[18.2143,49.972],[18.2065,49.9979],[18.1731,50.0003],[18.1551,49.9824],[18.1344,49.9974],[18.1159,49.9947],[18.0947,50.0121],[18.103,50.0226],[18.0856,50.032],[18.0894,50.0441],[18.035,50.0658],[18.0723,50.1098],[18.0608,50.1159],[18.068,50.1295],[18.0502,50.1381],[18.0661,50.157],[18.0566,50.1607],[18.062,50.1757],[18.1015,50.1809],[18.1105,50.1673],[18.1335,50.1844],[18.2492,50.1926],[18.2374,50.2147],[18.3621,50.2473],[18.3544,50.2579],[18.4259,50.249],[18.427,50.2687],[18.3935,50.2765],[18.4076,50.2899],[18.3921,50.3134],[18.4067,50.3228],[18.3577,50.3566],[18.3886,50.3704],[18.3739,50.3799],[18.3963,50.389],[18.3649,50.4191],[18.3891,50.4398],[18.3796,50.4817],[18.44,50.4807],[18.4526,50.4769],[18.452,50.4626],[18.4813,50.4583],[18.486,50.4699],[18.4665,50.4995],[18.4479,50.4994],[18.4299,50.5316],[18.437,50.5459],[18.4779,50.5527],[18.5573,50.5398],[18.6075,50.55],[18.6162,50.5692],[18.5908,50.5778],[18.6017,50.6045],[18.5174,50.6255],[18.5064,50.6413],[18.5228,50.6594],[18.4941,50.6643],[18.5089,50.6737],[18.4841,50.6857],[18.5009,50.6938],[18.4783,50.7031],[18.5069,50.7132],[18.509,50.7261],[18.5483,50.732],[18.5517,50.7523],[18.5799,50.7504],[18.55,50.7596],[18.5251,50.7764],[18.521,50.7969],[18.5046,50.801],[18.5622,50.8089],[18.558,50.8341],[18.6177,50.8546],[18.6547,50.9192],[18.6124,50.9551],[18.6636,50.9706],[18.6682,50.989],[18.6562,51.005],[18.6954,51.0157],[18.673,51.0569],[18.8565,51.0764],[18.8933,51.0602],[18.923,51.0994],[19.0116,51.0664],[19.0167,51.0519],[19.0563,51.0399],[19.0497,51.0264],[19.089,51.0335],[19.1236,50.9996],[19.1497,51.0096],[19.1449,51.0018],[19.2043,50.9824],[19.257,51.003],[19.2437,51.0225],[19.249,51.04],[19.2614,51.0311],[19.3227,51.0462],[19.3266,51.0123],[19.3622,51.0039],[19.3562,50.9926],[19.3921,51.0009],[19.4107,50.9807],[19.4034,50.9749],[19.4322,50.9649],[19.4364,50.946],[19.4698,50.9154]]],[[[19.7772,50.7757],[19.7765,50.7764],[19.7789,50.7781],[19.7818,50.7793],[19.7799,50.7773],[19.7784,50.776],[19.7772,50.7757]]],[[[19.7924,50.8103],[19.792,50.8111],[19.7941,50.8112],[19.7939,50.8106],[19.7924,50.8103]]],[[[19.7951,50.8153],[19.794,50.8158],[19.795,50.8163],[19.7958,50.8155],[19.7951,50.8153]]]]}},{"type":"Feature","properties":{"name":"opolskie"},"geometry":{"type":"Polygon","coordinates":[[[17.8122,51.1349],[17.8225,51.1183],[17.8854,51.1037],[17.9395,51.1089],[18.0503,51.1351],[18.0754,51.147],[18.0782,51.1662],[18.1044,51.1536],[18.1611,51.1747],[18.1869,51.1571],[18.2596,51.1576],[18.3052,51.1353],[18.3672,51.1388],[18.4359,51.1143],[18.4645,51.12],[18.4895,51.0907],[18.5197,51.108],[18.5208,51.1403],[18.5481,51.1411],[18.5776,51.082],[18.673,51.0569],[18.6954,51.0157],[18.6562,51.005],[18.6682,50.989],[18.6636,50.9706],[18.6124,50.9551],[18.6547,50.9192],[18.6177,50.8546],[18.558,50.8341],[18.5622,50.8089],[18.5046,50.801],[18.521,50.7969],[18.5251,50.7764],[18.55,50.7596],[18.5799,50.7504],[18.5517,50.7523],[18.5483,50.732],[18.509,50.7261],[18.5069,50.7132],[18.4783,50.7031],[18.5009,50.6938],[18.4841,50.6857],[18.5089,50.6737],[18.4941,50.6643],[18.5228,50.6594],[18.5064,50.6413],[18.5174,50.6255],[18.6017,50.6045],[18.5908,50.5778],[18.6162,50.5692],[18.6075,50.55],[18.5573,50.5398],[18.4779,50.5527],[18.437,50.5459],[18.4299,50.5316],[18.4479,50.4994],[18.4665,50.4995],[18.486,50.4699],[18.4813,50.4583],[18.452,50.4626],[18.4526,50.4769],[18.44,50.4807],[18.3796,50.4817],[18.3891,50.4398],[18.3649,50.4191],[18.3963,50.389],[18.3739,50.3799],[18.3886,50.3704],[18.3577,50.3566],[18.4067,50.3228],[18.3921,50.3134],[18.4076,50.2899],[18.3935,50.2765],[18.427,50.2687],[18.4259,50.249],[18.3544,50.2579],[18.3621,50.2473],[18.2374,50.2147],[18.2492,50.1926],[18.1335,50.1844],[18.1105,50.1673],[18.1015,50.1809],[18.062,50.1757],[18.0566,50.1607],[18.0661,50.157],[18.0502,50.1381],[18.068,50.1295],[18.0608,50.1159],[18.0723,50.1098],[18.0412,50.0697],[18.0049,50.0514],[18.0088,50.0313],[18.0444,50.0366],[18.0455,50.0051],[18.0045,50.0183],[17.954,50.0051],[17.9229,49.9787],[17.8686,49.9725],[17.8266,49.9942],[17.8369,50.0036],[17.8277,50.0113],[17.7716,50.0253],[17.759,50.0676],[17.7185,50.1059],[17.6965,50.117],[17.6766,50.103],[17.6503,50.1108],[17.6403,50.1307],[17.5927,50.1599],[17.6044,50.1709],[17.7047,50.1849],[17.7174,50.2057],[17.7585,50.2066],[17.765,50.2364],[17.725,50.2567],[17.7521,50.2995],[17.7291,50.3034],[17.719,50.3203],[17.6869,50.328],[17.686,50.299],[17.6121,50.266],[17.5913,50.2789],[17.4956,50.2751],[17.4559,50.2695],[17.4545,50.2565],[17.4375,50.2517],[17.4207,50.2774],[17.3862,50.2829],[17.3661,50.2821],[17.3625,50.2643],[17.3507,50.2637],[17.3379,50.2835],[17.3537,50.308],[17.3376,50.3132],[17.3487,50.3283],[17.2825,50.3189],[17.2011,50.364],[17.2038,50.3861],[17.1433,50.3804],[17.1111,50.3937],[17.1108,50.405],[17.0531,50.4069],[16.9983,50.4277],[16.974,50.4178],[16.9079,50.4494],[16.9403,50.4611],[16.959,50.4878],[16.9739,50.4891],[16.9823,50.4738],[17.0201,50.4803],[17.0192,50.4651],[17.0516,50.4654],[17.0643,50.4889],[17.0567,50.5049],[17.0748,50.5171],[17.0637,50.5423],[17.1149,50.5874],[17.1219,50.6075],[17.2442,50.6188],[17.2302,50.6407],[17.2347,50.6811],[17.2591,50.6905],[17.2202,50.7014],[17.2208,50.7137],[17.252,50.7177],[17.2756,50.7446],[17.3011,50.743],[17.2542,50.7721],[17.2734,50.7879],[17.352,50.7904],[17.3502,50.8076],[17.3183,50.8211],[17.3434,50.8294],[17.3282,50.8506],[17.3842,50.862],[17.3951,50.8755],[17.3979,50.8893],[17.3525,50.9007],[17.3694,50.9257],[17.4272,50.9106],[17.4395,50.9368],[17.4314,50.9671],[17.464,50.9783],[17.5094,50.9694],[17.5149,50.9797],[17.4907,50.9882],[17.5424,50.9912],[17.542,51.0025],[17.5143,51.0116],[17.5349,51.0432],[17.5187,51.0588],[17.5821,51.0818],[17.5624,51.0926],[17.5782,51.1108],[17.5764,51.1294],[17.5455,51.1436],[17.5447,51.1545],[17.5989,51.1679],[17.6115,51.1905],[17.6206,51.1754],[17.6693,51.1608],[17.7964,51.1943],[17.8422,51.1889],[17.8512,51.1724],[17.8324,51.1384],[17.8122,51.1349]]]}},{"type":"Feature","properties":{"name":"wielkopolskie"},"geometry":{"type":"Polygon","coordinates":[[[16.8487,53.6287],[16.8665,53.6503],[16.8922,53.6559],[16.8962,53.6211],[16.9405,53.5841],[16.9515,53.5432],[16.9811,53.5568],[17.0005,53.5519],[17.0065,53.5346],[16.9914,53.529],[16.9998,53.518],[17.0585,53.5204],[17.0898,53.5427],[17.1614,53.5278],[17.2707,53.5372],[17.3049,53.5285],[17.3055,53.5127],[17.3245,53.513],[17.3412,53.4953],[17.3941,53.4903],[17.3825,53.4686],[17.2947,53.4218],[17.2915,53.3991],[17.2473,53.375],[17.2566,53.3636],[17.3382,53.3477],[17.355,53.321],[17.4013,53.2936],[17.3944,53.2892],[17.4383,53.2675],[17.4185,53.2534],[17.4279,53.2464],[17.4127,53.2414],[17.4173,53.231],[17.3216,53.2163],[17.3471,53.1963],[17.3352,53.1795],[17.3469,53.1638],[17.3354,53.1556],[17.3928,53.142],[17.3526,53.1311],[17.3572,53.0872],[17.3239,53.0783],[17.3334,53.0191],[17.3154,53.0191],[17.3016,52.9948],[17.317,52.99],[17.3169,52.974],[17.3946,52.9824],[17.5186,52.928],[17.5096,52.9178],[17.5183,52.8857],[17.5284,52.8848],[17.5271,52.8582],[17.5133,52.8549],[17.521,52.8215],[17.5045,52.8041],[17.5098,52.7958],[17.4982,52.7849],[17.4604,52.7868],[17.4528,52.7972],[17.4107,52.7853],[17.4081,52.7715],[17.4225,52.7666],[17.4044,52.7567],[17.4897,52.7273],[17.4801,52.7114],[17.5004,52.7086],[17.4755,52.705],[17.4672,52.6804],[17.4852,52.6888],[17.5245,52.6725],[17.5461,52.6909],[17.5744,52.6917],[17.5791,52.705],[17.6276,52.7082],[17.6477,52.6903],[17.631,52.6782],[17.6345,52.6471],[17.6816,52.6507],[17.6781,52.6024],[17.7033,52.6163],[17.7039,52.6045],[17.7491,52.6325],[17.7445,52.6425],[17.7162,52.6397],[17.7609,52.6569],[17.7606,52.6343],[17.7867,52.6515],[17.8446,52.6282],[17.8768,52.6339],[17.9153,52.6127],[17.9077,52.5955],[17.921,52.5983],[17.9006,52.5863],[17.9164,52.5756],[17.9327,52.5712],[17.9336,52.5877],[17.9463,52.5687],[17.9702,52.5755],[17.9647,52.5653],[17.9742,52.5631],[17.9869,52.5774],[17.9945,52.5415],[18.0026,52.555],[18.0595,52.5428],[18.0954,52.5531],[18.1068,52.5385],[18.0902,52.5205],[18.1361,52.505],[18.1987,52.5048],[18.2046,52.4832],[18.2602,52.4812],[18.3452,52.5217],[18.3399,52.5375],[18.3525,52.5434],[18.3859,52.532],[18.3759,52.5039],[18.3917,52.4702],[18.4635,52.4766],[18.4622,52.4904],[18.4905,52.5048],[18.5256,52.4994],[18.5383,52.4812],[18.5597,52.4841],[18.5601,52.4633],[18.593,52.4694],[18.6087,52.4555],[18.6501,52.4503],[18.658,52.4219],[18.6847,52.4279],[18.6794,52.4008],[18.7152,52.3986],[18.7532,52.3634],[18.7558,52.3318],[18.9125,52.3662],[18.9102,52.3783],[18.9289,52.3781],[18.9244,52.3999],[18.9754,52.375],[18.9694,52.3555],[19.0471,52.3328],[19.045,52.3185],[19.0312,52.318],[19.0457,52.2957],[19.0315,52.2698],[19.1003,52.2659],[19.105,52.2415],[19.0709,52.2284],[19.0898,52.2067],[19.0776,52.2001],[19.0202,52.2154],[18.9241,52.1962],[18.9111,52.1327],[18.9498,52.1193],[18.944,52.1033],[18.9308,52.1043],[18.9251,52.0793],[18.8667,52.0875],[18.8278,52.0642],[18.7865,52.061],[18.7528,52.0765],[18.7183,52.0657],[18.7165,52.0323],[18.7346,52.0027],[18.7171,51.9929],[18.7339,51.9726],[18.715,51.9682],[18.7298,51.9547],[18.7382,51.9627],[18.7361,51.9446],[18.7679,51.9278],[18.7233,51.8721],[18.6968,51.8657],[18.6886,51.8225],[18.6132,51.8344],[18.5949,51.8481],[18.5155,51.8342],[18.5073,51.8544],[18.4721,51.851],[18.4627,51.8298],[18.4719,51.8199],[18.4393,51.8255],[18.4443,51.7985],[18.4093,51.7917],[18.4322,51.7648],[18.4172,51.7485],[18.4028,51.7504],[18.4235,51.7359],[18.4005,51.7223],[18.4137,51.7046],[18.362,51.6797],[18.3553,51.6605],[18.3813,51.6508],[18.35,51.6269],[18.3685,51.6169],[18.3487,51.6014],[18.3786,51.5923],[18.3648,51.5645],[18.3739,51.5479],[18.3585,51.5362],[18.3801,51.5182],[18.3828,51.4773],[18.3518,51.4698],[18.3562,51.4567],[18.3263,51.4198],[18.2127,51.4543],[18.1882,51.4412],[18.2113,51.423],[18.193,51.3876],[18.1493,51.3914],[18.1351,51.3608],[18.0745,51.3499],[18.1128,51.3108],[18.12,51.2866],[18.105,51.2855],[18.1169,51.2775],[18.1068,51.2628],[18.1726,51.2683],[18.1672,51.2438],[18.1802,51.2234],[18.1621,51.2055],[18.1622,51.1923],[18.1764,51.1908],[18.1637,51.1725],[18.126,51.1691],[18.1044,51.1536],[18.0782,51.1662],[18.0754,51.147],[18.0503,51.1351],[17.9395,51.1089],[17.8854,51.1037],[17.8225,51.1183],[17.8131,51.1379],[17.8324,51.1384],[17.848,51.1835],[17.7776,51.1978],[17.7565,51.2166],[17.744,51.243],[17.7494,51.2696],[17.7382,51.2757],[17.7662,51.3006],[17.756,51.3113],[17.7649,51.3164],[17.7438,51.3287],[17.7436,51.3465],[17.7043,51.3667],[17.7548,51.4073],[17.7186,51.4226],[17.7196,51.405],[17.7031,51.3995],[17.6391,51.4238],[17.5706,51.4051],[17.5406,51.4213],[17.5519,51.4352],[17.5207,51.4624],[17.529,51.4698],[17.5161,51.4881],[17.5264,51.4999],[17.5122,51.5055],[17.5623,51.5217],[17.5762,51.5411],[17.5724,51.5668],[17.5558,51.5846],[17.5219,51.59],[17.5212,51.6057],[17.4713,51.6261],[17.3244,51.648],[17.2156,51.6296],[17.2147,51.5738],[17.2044,51.5667],[17.188,51.5765],[17.1255,51.5653],[17.1085,51.576],[17.0647,51.5664],[17.0598,51.5457],[17.0461,51.556],[16.9719,51.5436],[16.9279,51.5524],[16.8873,51.581],[16.8284,51.5722],[16.7928,51.5905],[16.7996,51.6035],[16.772,51.6136],[16.7661,51.6277],[16.7833,51.641],[16.6814,51.6469],[16.6824,51.6569],[16.6432,51.6607],[16.6422,51.6835],[16.6824,51.7027],[16.6449,51.722],[16.6479,51.7442],[16.583,51.7508],[16.5767,51.7686],[16.5413,51.766],[16.5405,51.7815],[16.3938,51.7864],[16.4005,51.8378],[16.3795,51.8389],[16.3871,51.8464],[16.3351,51.8711],[16.3515,51.8807],[16.2868,51.9002],[16.2481,51.9007],[16.2149,51.8698],[16.1616,51.8924],[16.0989,51.8935],[16.1382,51.9255],[16.1262,51.9339],[16.1239,51.9514],[16.1373,51.9544],[16.1229,51.9931],[16.0606,51.9772],[16.01,51.9815],[15.988,52.0039],[15.9719,51.9997],[15.965,52.0178],[15.9643,52.0339],[15.9944,52.0352],[15.9893,52.0457],[16.0028,52.058],[15.9461,52.0877],[15.9324,52.0876],[15.9243,52.0675],[15.8603,52.0865],[15.8341,52.1085],[15.875,52.1305],[15.8833,52.1539],[15.8584,52.169],[15.8513,52.2556],[15.8919,52.3103],[15.881,52.3508],[15.9009,52.3862],[15.8434,52.403],[15.8042,52.4442],[15.8271,52.4546],[15.8314,52.4352],[15.8519,52.4316],[15.8987,52.4493],[15.8776,52.4695],[15.8929,52.4682],[15.8676,52.5026],[15.8771,52.5108],[15.8348,52.5293],[15.8585,52.5449],[15.8247,52.5671],[15.836,52.5872],[15.7959,52.6058],[15.7846,52.6185],[15.7994,52.6226],[15.7957,52.6362],[15.7763,52.6379],[15.7861,52.6677],[15.814,52.6678],[15.7942,52.7081],[15.9054,52.7142],[15.9455,52.7302],[15.9487,52.7561],[15.9257,52.7822],[15.9383,52.7862],[15.934,52.8041],[15.8932,52.8128],[15.9029,52.8359],[15.9187,52.8411],[15.9234,52.8311],[15.9517,52.8432],[15.9479,52.855],[15.97,52.8538],[15.9631,52.874],[15.9794,52.8779],[15.9673,52.9001],[15.9795,52.909],[15.9785,52.9374],[15.9614,52.9708],[15.946,52.9713],[15.9561,52.9756],[15.9554,53.0403],[16.1244,53.012],[16.2709,53.0492],[16.3169,53.0367],[16.3128,53.0497],[16.3628,53.0766],[16.346,53.1124],[16.3906,53.131],[16.3992,53.1637],[16.4248,53.1486],[16.4724,53.1698],[16.4995,53.1633],[16.5396,53.2014],[16.5321,53.219],[16.5564,53.2213],[16.5594,53.2332],[16.5957,53.2295],[16.6096,53.2087],[16.6382,53.215],[16.625,53.2264],[16.6325,53.2338],[16.6207,53.2336],[16.6446,53.2556],[16.63,53.26],[16.6607,53.2668],[16.6513,53.2806],[16.6737,53.2922],[16.7134,53.3016],[16.6368,53.3285],[16.6287,53.3474],[16.5851,53.3467],[16.5516,53.3563],[16.5355,53.3783],[16.5257,53.3672],[16.4751,53.3881],[16.4438,53.4532],[16.4637,53.4598],[16.4362,53.4606],[16.4541,53.4884],[16.4901,53.4703],[16.6494,53.4859],[16.7298,53.5292],[16.7186,53.5438],[16.7278,53.5673],[16.7464,53.5757],[16.738,53.5885],[16.7582,53.6241],[16.8138,53.6308],[16.8261,53.6434],[16.8487,53.6287]]]}},{"type":"Feature","properties":{"name":"zachodniopomorskie"},"geometry":{"type":"Polygon","coordinates":[[[16.3716,54.4414],[16.5286,54.5402],[16.6887,54.5696],[16.7452,54.5334],[16.7392,54.5177],[16.7612,54.4858],[16.8107,54.4819],[16.8411,54.4384],[16.8244,54.4157],[16.8586,54.3826],[16.8078,54.3705],[16.8281,54.3458],[16.8139,54.3186],[16.8543,54.3076],[16.8651,54.261],[16.7301,54.2317],[16.7114,54.2139],[16.7327,54.2037],[16.731,54.1784],[16.7743,54.1551],[16.779,54.1192],[16.8046,54.1161],[16.7923,54.0792],[16.8126,54.0731],[16.8119,54.0617],[16.7831,54.0241],[16.8014,54.004],[16.7878,53.9802],[16.8142,53.9799],[16.8025,53.9872],[16.8151,54.0048],[16.8423,53.9979],[16.88,53.9637],[16.8587,53.9469],[16.9821,53.9049],[16.9765,53.8796],[16.8925,53.8788],[16.8608,53.8523],[16.8728,53.8296],[16.9104,53.8199],[16.9095,53.8018],[16.9482,53.8052],[16.9307,53.7772],[16.8577,53.7471],[16.8773,53.7191],[16.8922,53.6559],[16.8665,53.6503],[16.8491,53.6272],[16.8261,53.6434],[16.8138,53.6308],[16.7582,53.6241],[16.738,53.5885],[16.7464,53.5757],[16.7278,53.5673],[16.7186,53.5438],[16.7298,53.5292],[16.652,53.487],[16.4901,53.4703],[16.4541,53.4884],[16.4362,53.4606],[16.4637,53.4598],[16.4438,53.4532],[16.4751,53.3881],[16.5257,53.3672],[16.5355,53.3783],[16.5516,53.3563],[16.5851,53.3467],[16.6287,53.3474],[16.6368,53.3285],[16.7134,53.3016],[16.6737,53.2922],[16.6513,53.2806],[16.6607,53.2668],[16.63,53.26],[16.6446,53.2556],[16.6207,53.2336],[16.6325,53.2338],[16.625,53.2264],[16.6382,53.215],[16.6096,53.2087],[16.5957,53.2295],[16.5594,53.2332],[16.5564,53.2213],[16.5321,53.219],[16.5396,53.2014],[16.4995,53.1633],[16.4724,53.1698],[16.4248,53.1486],[16.3992,53.1637],[16.3906,53.131],[16.346,53.1124],[16.3628,53.0766],[16.3128,53.0497],[16.3169,53.0367],[16.2709,53.0492],[16.1378,53.0137],[16.0735,53.0162],[15.9625,53.0414],[15.9896,53.0557],[15.9983,53.087],[15.9809,53.0973],[15.985,53.1142],[15.8753,53.1211],[15.8482,53.1152],[15.86,53.0937],[15.8115,53.0844],[15.8216,53.0652],[15.7802,53.0605],[15.807,53.045],[15.7627,53.0267],[15.778,53.0151],[15.7605,52.9951],[15.7211,52.9866],[15.6817,52.9973],[15.6334,52.9764],[15.5722,52.9869],[15.5469,53.0145],[15.3883,52.9716],[15.39,52.9621],[15.3517,52.9416],[15.2878,52.958],[15.292,52.9328],[15.3327,52.9018],[15.2878,52.8798],[15.2809,52.887],[15.0718,52.8306],[15.0388,52.8612],[14.9908,52.8425],[14.9783,52.8661],[14.9123,52.8882],[14.8904,52.8607],[14.9192,52.8439],[14.8956,52.8331],[14.8884,52.8463],[14.8657,52.8473],[14.8733,52.8338],[14.851,52.8281],[14.8554,52.8124],[14.8679,52.8122],[14.8653,52.792],[14.7912,52.7569],[14.7997,52.7375],[14.7916,52.6971],[14.7524,52.6689],[14.7492,52.6444],[14.7214,52.631],[14.6697,52.6378],[14.6323,52.6601],[14.564,52.6247],[14.517,52.639],[14.4327,52.6817],[14.351,52.7515],[14.2804,52.7737],[14.2175,52.8169],[14.1248,52.8335],[14.1616,52.8881],[14.1437,52.9614],[14.259,53.003],[14.3486,53.0547],[14.3873,53.1424],[14.3663,53.172],[14.3773,53.2018],[14.4059,53.2107],[14.4506,53.2623],[14.4452,53.2744],[14.4212,53.2761],[14.4068,53.3087],[14.4154,53.3244],[14.3903,53.3537],[14.3948,53.3757],[14.3733,53.4089],[14.3713,53.4564],[14.3581,53.4573],[14.3507,53.496],[14.3269,53.5038],[14.3026,53.5534],[14.3139,53.5651],[14.3169,53.6181],[14.2839,53.6344],[14.2848,53.6587],[14.2708,53.6668],[14.2837,53.6826],[14.2668,53.6987],[14.267,53.7535],[14.2836,53.7723],[14.2126,53.8672],[14.2058,53.9106],[14.1853,53.9141],[14.2268,53.9304],[14.2726,53.9242],[14.2804,53.9376],[14.3163,53.9157],[14.3934,53.9162],[14.4992,53.9634],[14.7261,54.0244],[15.2839,54.1475],[15.4909,54.1671],[15.5517,54.1892],[15.6745,54.2008],[15.8483,54.2411],[16.0885,54.2709],[16.1846,54.3052],[16.2624,54.3493],[16.3716,54.4414]]]}},{"type":"Feature","properties":{"name":"świętokrzyskie"},"geometry":{"type":"Polygon","coordinates":[[[19.7471,50.866],[19.7866,50.8871],[19.7931,50.9063],[19.8361,50.9168],[19.8481,50.9323],[19.8279,50.9668],[19.8635,51.0047],[19.8777,51.0481],[19.8972,51.0286],[19.9369,51.0246],[19.9357,51.0111],[19.9484,51.0131],[19.958,50.9903],[20.0175,50.9624],[20.0363,50.9732],[20.0326,50.9953],[20.049,51.0115],[20.0562,51.0577],[20.0454,51.0686],[19.9818,51.0731],[19.9929,51.1004],[19.9859,51.1346],[20.0017,51.1331],[19.9883,51.1395],[20.0258,51.1647],[19.9967,51.1865],[20.0452,51.2023],[20.0597,51.1996],[20.0551,51.1909],[20.1195,51.1893],[20.1795,51.1955],[20.1788,51.2071],[20.2012,51.2041],[20.1958,51.1968],[20.2146,51.2096],[20.2172,51.1991],[20.2516,51.2068],[20.2644,51.2191],[20.2513,51.2216],[20.256,51.2367],[20.2419,51.2436],[20.2426,51.2573],[20.3101,51.2431],[20.3308,51.2577],[20.3711,51.2366],[20.3753,51.2618],[20.3904,51.2722],[20.3642,51.3114],[20.4104,51.3186],[20.4329,51.3424],[20.5086,51.3301],[20.5174,51.3166],[20.4945,51.2988],[20.5333,51.2765],[20.5248,51.2604],[20.5391,51.2546],[20.5436,51.2313],[20.6072,51.2468],[20.633,51.2234],[20.6908,51.2055],[20.7027,51.1849],[20.6853,51.1736],[20.6855,51.1512],[20.6974,51.149],[20.7184,51.1727],[20.7708,51.1485],[20.813,51.1458],[20.8216,51.1785],[20.8798,51.1544],[20.9207,51.1953],[21.0008,51.1596],[20.9985,51.1445],[21.0229,51.1586],[21.0566,51.1571],[21.0734,51.1858],[21.07,51.2114],[21.1199,51.1887],[21.0912,51.1551],[21.1395,51.1256],[21.1641,51.1285],[21.154,51.1255],[21.1528,51.0803],[21.3555,51.0853],[21.3536,51.0671],[21.3831,51.0583],[21.3818,51.0406],[21.4636,51.0131],[21.5046,51.0317],[21.4899,51.0397],[21.5169,51.0365],[21.4996,51.0451],[21.5124,51.0593],[21.5328,51.0623],[21.5451,51.0474],[21.6302,51.0634],[21.6121,51.076],[21.6763,51.078],[21.7052,51.0427],[21.757,51.0373],[21.779,51.042],[21.7851,51.0689],[21.803,51.0721],[21.8264,51.047],[21.8027,51.0253],[21.8207,51.0046],[21.8129,50.9345],[21.8474,50.8617],[21.8423,50.8402],[21.8691,50.8148],[21.825,50.6972],[21.7863,50.68],[21.7938,50.6757],[21.7801,50.6451],[21.7512,50.6552],[21.7226,50.6454],[21.6694,50.605],[21.6575,50.573],[21.6023,50.5202],[21.5538,50.5205],[21.4498,50.4928],[21.4437,50.4565],[21.281,50.4084],[21.2797,50.3917],[21.2567,50.3909],[21.2196,50.3573],[21.1901,50.3521],[21.1789,50.3302],[21.132,50.3543],[21.0617,50.317],[20.9552,50.316],[20.9319,50.2981],[20.8953,50.3066],[20.853,50.2952],[20.8358,50.2733],[20.7899,50.2896],[20.729,50.2515],[20.7295,50.2309],[20.6829,50.217],[20.6744,50.2019],[20.634,50.2117],[20.5764,50.1871],[20.5576,50.2015],[20.5129,50.186],[20.4697,50.2008],[20.4735,50.1908],[20.455,50.1992],[20.4155,50.1912],[20.4102,50.2118],[20.377,50.2126],[20.3743,50.2272],[20.3975,50.2415],[20.3309,50.2675],[20.3621,50.2846],[20.341,50.2871],[20.3491,50.2989],[20.3279,50.3186],[20.2926,50.3222],[20.3053,50.3359],[20.2936,50.3491],[20.3391,50.3596],[20.3175,50.3707],[20.3209,50.3845],[20.3058,50.389],[20.2899,50.4191],[20.2637,50.4303],[20.2729,50.4699],[20.2258,50.4781],[20.2054,50.4957],[20.1056,50.486],[20.0871,50.4896],[20.097,50.4961],[20.0763,50.5096],[20.0283,50.5009],[19.9872,50.5198],[19.9345,50.5024],[19.9117,50.5118],[19.9011,50.5398],[19.8551,50.5438],[19.8443,50.5559],[19.7887,50.5545],[19.7897,50.5685],[19.817,50.5729],[19.8583,50.6195],[19.8984,50.616],[19.9222,50.6394],[19.8327,50.6515],[19.837,50.6704],[19.8657,50.6649],[19.8586,50.674],[19.8717,50.693],[19.8083,50.7059],[19.8108,50.7254],[19.759,50.7157],[19.7129,50.7292],[19.7058,50.7618],[19.7343,50.7697],[19.7417,50.7547],[19.7702,50.7709],[19.7647,50.7777],[19.7954,50.7837],[19.7754,50.7983],[19.7907,50.8055],[19.7788,50.8094],[19.7842,50.8178],[19.8138,50.8024],[19.8234,50.8056],[19.8186,50.8207],[19.8322,50.8197],[19.8054,50.8468],[19.7471,50.866]],[[19.7772,50.7757],[19.7784,50.776],[19.7799,50.7773],[19.7818,50.7793],[19.7789,50.7781],[19.7765,50.7764],[19.7772,50.7757]],[[19.7924,50.8103],[19.7939,50.8106],[19.7941,50.8112],[19.792,50.8111],[19.7924,50.8103]],[[19.7951,50.8153],[19.7958,50.8155],[19.795,50.8163],[19.794,50.8158],[19.7951,50.8153]]]}},{"type":"Feature","properties":{"name":"kujawsko-pomorskie"},"geometry":{"type":"Polygon","coordinates":[[[18.6768,53.6907],[18.6965,53.6999],[18.7255,53.6838],[18.789,53.7021],[18.7393,53.6446],[18.7607,53.6047],[18.89,53.5995],[18.9086,53.5915],[18.9052,53.5776],[18.9268,53.5917],[19.0859,53.5982],[19.1821,53.579],[19.1997,53.5701],[19.1893,53.5478],[19.2079,53.5481],[19.2199,53.5283],[19.1892,53.5116],[19.2256,53.4888],[19.2366,53.4675],[19.2258,53.4531],[19.2465,53.4553],[19.2411,53.4409],[19.2546,53.4315],[19.2317,53.4146],[19.2592,53.3965],[19.2917,53.3851],[19.3074,53.4115],[19.3689,53.4129],[19.3938,53.3881],[19.4474,53.3756],[19.4287,53.3592],[19.5199,53.3703],[19.5287,53.3527],[19.5201,53.3304],[19.6416,53.3446],[19.6901,53.3363],[19.6851,53.3041],[19.7181,53.3021],[19.7122,53.2886],[19.7258,53.2838],[19.717,53.2809],[19.7297,53.27],[19.7132,53.2745],[19.6821,53.2568],[19.6895,53.2339],[19.7436,53.2282],[19.7527,53.2126],[19.7365,53.2032],[19.7616,53.1518],[19.6671,53.1061],[19.6342,53.1117],[19.6461,53.0775],[19.6616,53.0694],[19.6468,53.0662],[19.6522,53.0378],[19.6903,53.0215],[19.6649,52.9868],[19.6847,52.963],[19.6716,52.9556],[19.5547,52.9901],[19.5825,52.9569],[19.5289,52.9364],[19.4449,52.9475],[19.4508,52.9254],[19.4719,52.9172],[19.4586,52.9067],[19.5158,52.8602],[19.475,52.8654],[19.4634,52.8559],[19.4735,52.8503],[19.4257,52.8408],[19.4238,52.8156],[19.4657,52.8045],[19.4674,52.7865],[19.5042,52.7677],[19.4975,52.7495],[19.5231,52.7486],[19.4984,52.7325],[19.5033,52.7135],[19.5271,52.7049],[19.4413,52.723],[19.4364,52.6826],[19.4509,52.6722],[19.4154,52.6713],[19.403,52.6445],[19.3679,52.6283],[19.4261,52.6114],[19.421,52.602],[19.3983,52.5934],[19.3865,52.5715],[19.3411,52.5671],[19.3554,52.5371],[19.3488,52.5281],[19.3196,52.5349],[19.3957,52.5129],[19.3636,52.5038],[19.3581,52.4813],[19.3389,52.4798],[19.3191,52.4487],[19.2592,52.4426],[19.2961,52.4246],[19.2804,52.4055],[19.2892,52.3927],[19.2706,52.393],[19.2367,52.3622],[19.21,52.3656],[19.2243,52.3434],[19.1996,52.36],[19.1596,52.3408],[19.0992,52.3479],[19.0552,52.3376],[19.064,52.3306],[19.029,52.3321],[18.9993,52.353],[18.9694,52.3555],[18.9754,52.375],[18.9244,52.3999],[18.9289,52.3781],[18.9102,52.3783],[18.9125,52.3662],[18.7558,52.3318],[18.7532,52.3634],[18.7152,52.3986],[18.6794,52.4008],[18.6847,52.4279],[18.658,52.4219],[18.6501,52.4503],[18.6087,52.4555],[18.593,52.4694],[18.5601,52.4633],[18.5597,52.4841],[18.5383,52.4812],[18.5256,52.4994],[18.4905,52.5048],[18.4622,52.4904],[18.4635,52.4766],[18.3917,52.4702],[18.3759,52.5039],[18.3859,52.532],[18.3525,52.5434],[18.3399,52.5375],[18.3452,52.5217],[18.2602,52.4812],[18.2046,52.4832],[18.1987,52.5048],[18.1361,52.505],[18.0902,52.5205],[18.1068,52.5385],[18.0954,52.5531],[18.0595,52.5428],[18.0026,52.555],[17.9874,52.5431],[17.9869,52.5774],[17.9742,52.5631],[17.9647,52.5653],[17.9702,52.5755],[17.9463,52.5687],[17.9336,52.5877],[17.9327,52.5712],[17.9164,52.5756],[17.9006,52.5863],[17.921,52.5983],[17.9077,52.5955],[17.9153,52.6127],[17.8768,52.6339],[17.8446,52.6282],[17.7867,52.6515],[17.7606,52.6343],[17.7609,52.6569],[17.7162,52.6397],[17.7445,52.6425],[17.7491,52.6325],[17.7039,52.6045],[17.7033,52.6163],[17.6781,52.6024],[17.6816,52.6507],[17.6345,52.6471],[17.631,52.6782],[17.6477,52.6903],[17.6276,52.7082],[17.5791,52.705],[17.5744,52.6917],[17.5461,52.6909],[17.5245,52.6725],[17.4852,52.6888],[17.4672,52.6804],[17.4755,52.705],[17.5004,52.7086],[17.4801,52.7114],[17.4897,52.7273],[17.4044,52.7567],[17.4225,52.7666],[17.4081,52.7715],[17.4107,52.7853],[17.4528,52.7972],[17.4604,52.7868],[17.4982,52.7849],[17.5098,52.7958],[17.5045,52.8041],[17.521,52.8215],[17.5133,52.8549],[17.5271,52.8582],[17.5284,52.8848],[17.5183,52.8857],[17.5096,52.9178],[17.5186,52.928],[17.3946,52.9824],[17.3169,52.974],[17.317,52.99],[17.3016,52.9948],[17.3154,53.0191],[17.3334,53.0191],[17.3239,53.0783],[17.3572,53.0872],[17.3526,53.1311],[17.3928,53.142],[17.3354,53.1556],[17.3469,53.1638],[17.3352,53.1795],[17.3471,53.1963],[17.3216,53.2163],[17.4173,53.231],[17.4127,53.2414],[17.4279,53.2464],[17.4185,53.2534],[17.4383,53.2675],[17.3944,53.2892],[17.4013,53.2936],[17.355,53.321],[17.3382,53.3477],[17.2566,53.3636],[17.2473,53.3777],[17.2915,53.3991],[17.2947,53.4218],[17.3825,53.4686],[17.3938,53.5078],[17.4228,53.5375],[17.4132,53.5608],[17.4313,53.5925],[17.5146,53.6178],[17.545,53.58],[17.5793,53.5785],[17.6044,53.5969],[17.672,53.5702],[17.6742,53.5836],[17.655,53.5887],[17.6688,53.6018],[17.7304,53.5929],[17.7351,53.6137],[17.711,53.609],[17.7197,53.617],[17.7119,53.6362],[17.7329,53.6479],[17.7407,53.678],[17.7638,53.6836],[17.7631,53.6948],[17.8072,53.6793],[17.8985,53.7106],[17.8925,53.7174],[17.9041,53.7218],[17.8636,53.7582],[17.9486,53.7473],[17.9912,53.7245],[18.0318,53.7251],[18.072,53.7811],[18.109,53.7691],[18.1108,53.7582],[18.1518,53.7682],[18.1549,53.7532],[18.1789,53.7435],[18.2015,53.7562],[18.196,53.7389],[18.2169,53.7518],[18.219,53.7398],[18.2676,53.7423],[18.2767,53.7207],[18.2542,53.7113],[18.2638,53.701],[18.4602,53.6864],[18.4705,53.7037],[18.5158,53.704],[18.5232,53.6915],[18.5145,53.681],[18.5534,53.6551],[18.5834,53.6594],[18.5671,53.6733],[18.5755,53.6772],[18.6095,53.6706],[18.6536,53.6948],[18.6768,53.6907]]]}},{"type":"Feature","properties":{"name":"podlaskie"},"geometry":{"type":"Polygon","coordinates":[[[21.926,53.0781],[21.8726,53.0588],[21.8082,53.1147],[21.7362,53.1092],[21.6946,53.138],[21.7076,53.1641],[21.6696,53.2083],[21.6891,53.215],[21.6227,53.2664],[21.6583,53.2618],[21.6598,53.2778],[21.6451,53.2835],[21.6611,53.295],[21.6581,53.3161],[21.6833,53.3052],[21.7354,53.3127],[21.6889,53.3272],[21.6928,53.3358],[21.6523,53.3313],[21.6694,53.3361],[21.656,53.3528],[21.684,53.3681],[21.6544,53.3722],[21.6614,53.3864],[21.6524,53.3972],[21.6241,53.407],[21.625,53.4285],[21.593,53.4614],[21.6149,53.4646],[21.603,53.4642],[21.5982,53.4802],[21.6867,53.4928],[21.8583,53.4589],[21.891,53.4665],[21.902,53.4932],[21.9337,53.5111],[21.9899,53.5221],[22.0265,53.496],[22.054,53.5275],[22.1747,53.5578],[22.2808,53.6217],[22.3266,53.6318],[22.423,53.6815],[22.4448,53.6723],[22.4406,53.6648],[22.473,53.6631],[22.4676,53.699],[22.5141,53.6977],[22.5847,53.7343],[22.6068,53.717],[22.629,53.7574],[22.6408,53.7476],[22.6968,53.7616],[22.7268,53.8039],[22.7267,53.8332],[22.779,53.8656],[22.7816,53.9197],[22.6965,53.9735],[22.6699,54.0296],[22.5999,54.0528],[22.6038,54.0819],[22.6355,54.093],[22.6368,54.1066],[22.5914,54.1507],[22.5471,54.1377],[22.5369,54.1604],[22.5191,54.1613],[22.5038,54.1805],[22.5103,54.1908],[22.4766,54.2013],[22.5188,54.2178],[22.5319,54.2489],[22.566,54.2498],[22.576,54.2672],[22.6107,54.2599],[22.6447,54.2878],[22.6945,54.2754],[22.7513,54.2982],[22.7791,54.2936],[22.7953,54.3249],[22.7765,54.328],[22.8061,54.3495],[22.792,54.3633],[22.8114,54.371],[22.8363,54.4065],[22.888,54.4091],[22.8875,54.3999],[23.0102,54.3828],[22.9939,54.3619],[23.0632,54.341],[23.0464,54.3272],[23.051,54.3124],[23.0922,54.2985],[23.1488,54.3144],[23.1598,54.3096],[23.1542,54.297],[23.2024,54.2886],[23.2339,54.2609],[23.3375,54.2517],[23.3868,54.2248],[23.4245,54.1775],[23.459,54.1755],[23.4858,54.1532],[23.4926,54.117],[23.5286,54.0658],[23.5249,54.0311],[23.4823,53.9895],[23.5165,53.9575],[23.5116,53.9159],[23.5241,53.8626],[23.552,53.8507],[23.5491,53.7678],[23.5821,53.7438],[23.5861,53.7031],[23.6597,53.5214],[23.799,53.2742],[23.8188,53.244],[23.8553,53.2318],[23.8639,53.1955],[23.9183,53.1576],[23.8719,53.0841],[23.9254,53.0246],[23.9311,52.9762],[23.9463,52.9587],[23.9165,52.9388],[23.9246,52.8307],[23.9396,52.8132],[23.9386,52.7129],[23.7609,52.616],[23.6414,52.6075],[23.4666,52.5494],[23.3567,52.4689],[23.1783,52.2831],[23.1492,52.2807],[23.1123,52.3001],[23.0632,52.2821],[23.0482,52.2887],[23.0589,52.3041],[23.0452,52.3249],[22.9948,52.3323],[22.9572,52.3682],[22.9197,52.3745],[22.8479,52.3587],[22.7526,52.384],[22.7279,52.3663],[22.7067,52.3922],[22.5792,52.3938],[22.5421,52.423],[22.5542,52.4632],[22.5297,52.4616],[22.512,52.4813],[22.5267,52.5212],[22.4575,52.5866],[22.4086,52.6097],[22.4736,52.6462],[22.4503,52.6527],[22.4353,52.6954],[22.4607,52.7707],[22.4538,52.7882],[22.3788,52.7944],[22.3826,52.7776],[22.3446,52.7778],[22.3344,52.7405],[22.3037,52.748],[22.311,52.7552],[22.2966,52.7664],[22.308,52.7742],[22.2766,52.7836],[22.2425,52.8328],[22.2612,52.8442],[22.2747,52.832],[22.3051,52.8393],[22.3074,52.8577],[22.2783,52.8481],[22.292,52.8709],[22.2794,52.8861],[22.2527,52.8764],[22.2072,52.883],[22.2097,52.8545],[22.1741,52.8581],[22.1242,52.8427],[22.1014,52.862],[22.084,52.8418],[22.0379,52.8511],[22.0266,52.8648],[22.0386,52.8822],[22.0039,52.8779],[22.0091,52.9052],[21.9928,52.9151],[22.0288,52.9365],[21.9884,52.9574],[22.0018,52.9723],[21.9187,52.9889],[21.8757,53.0163],[21.8977,53.0458],[21.9407,53.038],[21.9226,53.0462],[21.9411,53.0716],[21.926,53.0781]]]}},{"type":"Feature","properties":{"name":"dolnośląskie"},"geometry":{"type":"Polygon","coordinates":[[[16.4162,51.7849],[16.5405,51.7815],[16.5413,51.766],[16.5767,51.7686],[16.583,51.7508],[16.6432,51.7463],[16.6449,51.722],[16.6825,51.705],[16.6763,51.6922],[16.6638,51.6988],[16.6637,51.6886],[16.6422,51.6835],[16.6432,51.6607],[16.6824,51.6569],[16.6814,51.6469],[16.7833,51.641],[16.7661,51.6277],[16.8026,51.6008],[16.7928,51.5905],[16.8284,51.5722],[16.8902,51.5803],[16.9279,51.5524],[16.9624,51.5447],[17.0461,51.556],[17.0598,51.5457],[17.0647,51.5664],[17.1085,51.576],[17.1255,51.5653],[17.188,51.5765],[17.2067,51.5671],[17.2156,51.6296],[17.2577,51.6429],[17.3301,51.6479],[17.4713,51.6261],[17.5724,51.5668],[17.5727,51.5299],[17.5122,51.5055],[17.5264,51.4999],[17.5161,51.4881],[17.529,51.4698],[17.5207,51.4624],[17.5482,51.4429],[17.5406,51.4213],[17.5543,51.4105],[17.6039,51.4094],[17.6129,51.423],[17.6391,51.4238],[17.7031,51.3995],[17.7196,51.405],[17.7186,51.4226],[17.7559,51.4049],[17.7291,51.3957],[17.7329,51.3873],[17.7043,51.3667],[17.7436,51.3465],[17.7438,51.3287],[17.7649,51.3164],[17.756,51.3113],[17.7662,51.3006],[17.7382,51.2757],[17.7494,51.2696],[17.744,51.243],[17.7674,51.2039],[17.7949,51.19],[17.6693,51.1608],[17.6206,51.1754],[17.6115,51.1905],[17.5989,51.1679],[17.5447,51.1545],[17.5455,51.1436],[17.5764,51.1294],[17.5782,51.1108],[17.5624,51.0926],[17.5821,51.0818],[17.5187,51.0588],[17.5349,51.0432],[17.5143,51.0116],[17.542,51.0025],[17.5424,50.9912],[17.4907,50.9882],[17.5149,50.9797],[17.5094,50.9694],[17.464,50.9783],[17.4314,50.9671],[17.4395,50.9368],[17.4272,50.9106],[17.3694,50.9257],[17.3525,50.9007],[17.3979,50.8893],[17.3951,50.8755],[17.3842,50.862],[17.3282,50.8506],[17.3434,50.8294],[17.3183,50.8211],[17.3502,50.8076],[17.352,50.7904],[17.2734,50.7879],[17.2542,50.7721],[17.3011,50.743],[17.2756,50.7446],[17.252,50.7177],[17.2208,50.7137],[17.2202,50.7014],[17.2591,50.6905],[17.2347,50.6811],[17.2302,50.6407],[17.2442,50.6188],[17.1219,50.6075],[17.1149,50.5874],[17.0637,50.5423],[17.0748,50.5171],[17.0567,50.5049],[17.0643,50.4889],[17.0516,50.4654],[17.0192,50.4651],[17.0201,50.4803],[16.9823,50.4738],[16.9739,50.4891],[16.959,50.4878],[16.9403,50.4611],[16.881,50.4423],[16.8605,50.4112],[16.911,50.389],[16.9461,50.3154],[16.9683,50.3159],[17.0147,50.2885],[17.0174,50.2687],[17.0016,50.2564],[17.0283,50.23],[17.0148,50.2194],[16.997,50.2166],[16.9763,50.2449],[16.956,50.2225],[16.8995,50.223],[16.8827,50.1998],[16.8486,50.2076],[16.813,50.1914],[16.7833,50.1456],[16.7453,50.1349],[16.706,50.0966],[16.6336,50.1113],[16.5608,50.1643],[16.5617,50.2076],[16.5483,50.2297],[16.4897,50.2642],[16.4311,50.3248],[16.3993,50.3192],[16.3832,50.3288],[16.3622,50.3497],[16.3608,50.3795],[16.3023,50.3822],[16.2792,50.3675],[16.2631,50.3936],[16.2475,50.396],[16.2533,50.4051],[16.2147,50.409],[16.1957,50.4321],[16.2133,50.4518],[16.2319,50.4435],[16.2204,50.4579],[16.2557,50.4676],[16.2587,50.4802],[16.2941,50.4792],[16.3117,50.5062],[16.3604,50.5012],[16.4018,50.5299],[16.3874,50.5418],[16.4109,50.5479],[16.4046,50.5693],[16.4449,50.5796],[16.3431,50.6615],[16.2357,50.6717],[16.2174,50.6333],[16.1842,50.6272],[16.1704,50.6453],[16.1037,50.6634],[16.0676,50.6398],[16.0561,50.6097],[16.0426,50.6142],[16.0248,50.5986],[15.9864,50.6135],[16.0218,50.6302],[16.0011,50.6445],[15.9912,50.6831],[15.9619,50.6919],[15.861,50.6744],[15.8162,50.7553],[15.7057,50.7373],[15.6049,50.776],[15.5243,50.777],[15.511,50.7908],[15.4388,50.8091],[15.3933,50.7762],[15.3748,50.7776],[15.3672,50.8381],[15.3098,50.8614],[15.2771,50.891],[15.2678,50.9325],[15.292,50.9535],[15.2739,50.9629],[15.2741,50.9795],[15.2485,50.9797],[15.2366,50.9987],[15.1799,50.983],[15.1718,51.02],[15.1444,51.0134],[15.1331,50.9939],[15.1421,50.9913],[15.1304,50.9903],[15.1054,50.9914],[15.0969,51.0019],[15.1061,51.0106],[15.061,51.0229],[15.0557,51.012],[15.0244,51.0232],[14.9854,51.0108],[14.9682,50.99],[14.9889,50.978],[15.0061,50.9865],[15.0217,50.9671],[15.0108,50.963],[15.0143,50.9398],[14.9894,50.9216],[15.0068,50.9072],[14.9948,50.8928],[15.0021,50.869],[14.9593,50.8619],[14.9002,50.876],[14.8973,50.8674],[14.8193,50.8742],[14.8204,50.8863],[14.8966,50.9406],[14.9035,50.9719],[14.9194,50.9753],[14.9176,50.9957],[14.9795,51.0774],[14.9815,51.1173],[14.9978,51.1228],[14.9931,51.1624],[15.005,51.1677],[15.0098,51.2136],[15.0379,51.244],[15.0233,51.2506],[15.0418,51.2742],[14.965,51.3618],[15.0124,51.3634],[15.0179,51.3935],[15.0712,51.397],[15.089,51.4277],[15.187,51.464],[15.2025,51.4626],[15.2009,51.446],[15.252,51.449],[15.3337,51.4099],[15.3249,51.4185],[15.3433,51.4469],[15.3337,51.4516],[15.3394,51.4741],[15.3821,51.4723],[15.367,51.494],[15.3965,51.531],[15.4058,51.5196],[15.437,51.5273],[15.4823,51.513],[15.4877,51.5276],[15.5959,51.4696],[15.5809,51.4531],[15.5998,51.4457],[15.6347,51.4789],[15.656,51.4724],[15.6789,51.5124],[15.714,51.5174],[15.7038,51.5569],[15.8236,51.5727],[15.8158,51.6029],[15.834,51.6222],[15.8304,51.6368],[15.8572,51.6504],[15.8343,51.6722],[15.8684,51.6887],[15.8695,51.7197],[15.9801,51.7453],[15.9688,51.7683],[16.0086,51.7757],[15.9719,51.7825],[15.966,51.7915],[15.9792,51.8023],[16.0287,51.8025],[16.0352,51.7817],[16.07,51.7826],[16.1335,51.7583],[16.1779,51.7638],[16.16,51.7117],[16.2176,51.7146],[16.2233,51.6954],[16.2515,51.6863],[16.2701,51.6635],[16.2694,51.6847],[16.3501,51.7108],[16.3693,51.7288],[16.3617,51.7415],[16.378,51.753],[16.3771,51.7672],[16.4162,51.7849]]]}},{"type":"Feature","properties":{"name":"podkarpackie"},"geometry":{"type":"Polygon","coordinates":[[[22.5437,50.3563],[22.6871,50.357],[22.6869,50.3451],[22.6103,50.3299],[22.6069,50.3111],[22.7076,50.2914],[22.7506,50.303],[22.8905,50.3015],[23.0172,50.2869],[23.1798,50.3951],[23.2187,50.3883],[23.2507,50.3593],[23.3581,50.4105],[23.3876,50.4054],[23.3667,50.3938],[23.3828,50.3833],[23.3789,50.3683],[23.4358,50.347],[23.4034,50.3014],[23.5199,50.2955],[23.5011,50.2852],[23.5139,50.2788],[23.5089,50.2613],[23.5479,50.2518],[23.4701,50.2179],[23.2792,50.0998],[23.2793,50.0863],[23.216,50.0475],[23.213,50.0311],[23.1149,49.9565],[22.9955,49.8422],[22.9707,49.8386],[22.9619,49.8047],[22.9016,49.7683],[22.8478,49.7101],[22.803,49.6911],[22.7833,49.6572],[22.6974,49.5845],[22.6747,49.5492],[22.6408,49.53],[22.6512,49.5084],[22.6967,49.4951],[22.7468,49.3599],[22.7396,49.2473],[22.7149,49.2265],[22.7477,49.2159],[22.7075,49.1748],[22.7187,49.165],[22.7328,49.1822],[22.7563,49.1825],[22.7389,49.1581],[22.7893,49.1575],[22.7934,49.138],[22.8315,49.111],[22.8512,49.1147],[22.8557,49.1036],[22.8928,49.0946],[22.8647,49.0667],[22.8758,49.0511],[22.8664,49.0402],[22.8806,49.0383],[22.8741,49.0305],[22.8941,49.0176],[22.8916,49.0077],[22.8474,49.0025],[22.8337,49.0261],[22.8132,49.0251],[22.7655,49.0535],[22.755,49.0429],[22.7179,49.0528],[22.6802,49.0394],[22.5861,49.097],[22.497,49.0859],[22.457,49.1036],[22.4227,49.0995],[22.3673,49.1466],[22.3177,49.1356],[22.2257,49.1525],[22.2359,49.1685],[22.2225,49.1845],[22.1899,49.174],[22.1438,49.2005],[22.062,49.2116],[22.0304,49.2252],[22.0419,49.2572],[22.0303,49.2627],[22.0343,49.278],[21.9832,49.3104],[21.9628,49.3479],[21.9038,49.35],[21.8873,49.369],[21.857,49.3699],[21.8402,49.3915],[21.803,49.3822],[21.7892,49.3555],[21.778,49.356],[21.7634,49.3835],[21.7269,49.3981],[21.7218,49.4123],[21.6589,49.4168],[21.6309,49.4473],[21.5906,49.4338],[21.5303,49.4351],[21.517,49.4178],[21.4889,49.4291],[21.467,49.4132],[21.433,49.4126],[21.3987,49.4338],[21.3922,49.4558],[21.4114,49.4678],[21.3889,49.4854],[21.4186,49.4976],[21.3929,49.5115],[21.3805,49.5391],[21.3586,49.5447],[21.3806,49.5694],[21.3268,49.5922],[21.3627,49.6336],[21.3417,49.6593],[21.3487,49.6927],[21.3204,49.6984],[21.3314,49.7188],[21.3125,49.7478],[21.2578,49.7521],[21.2418,49.7761],[21.2791,49.8053],[21.3084,49.7961],[21.3489,49.8147],[21.2975,49.8428],[21.2254,49.8523],[21.2261,49.8855],[21.2796,49.892],[21.2847,49.9241],[21.1791,49.9287],[21.1507,49.9761],[21.1544,50.0034],[21.1929,50.0293],[21.145,50.0531],[21.1797,50.0761],[21.1601,50.0895],[21.199,50.095],[21.1769,50.112],[21.195,50.1198],[21.1462,50.13],[21.1758,50.1426],[21.1524,50.1476],[21.1708,50.1769],[21.1709,50.2086],[21.1422,50.2377],[21.1827,50.24],[21.1461,50.2569],[21.1838,50.298],[21.2225,50.3109],[21.2088,50.3549],[21.2292,50.3729],[21.2786,50.391],[21.281,50.4084],[21.3112,50.4217],[21.4437,50.4565],[21.4498,50.4928],[21.5538,50.5205],[21.604,50.5212],[21.6575,50.573],[21.6694,50.605],[21.7226,50.6454],[21.7512,50.6552],[21.7801,50.6451],[21.7938,50.6757],[21.7863,50.68],[21.825,50.6972],[21.8643,50.8027],[21.8754,50.7796],[21.9495,50.7714],[21.9724,50.7878],[21.9944,50.7832],[22.0521,50.8205],[22.163,50.7973],[22.1523,50.7718],[22.2056,50.754],[22.1691,50.6889],[22.1418,50.6697],[22.2232,50.6598],[22.2497,50.6206],[22.3478,50.6145],[22.4201,50.5806],[22.4653,50.5919],[22.4836,50.5757],[22.5065,50.5842],[22.5058,50.5756],[22.5198,50.5832],[22.5362,50.5721],[22.5385,50.5498],[22.5121,50.5389],[22.5343,50.5375],[22.5288,50.5128],[22.5412,50.5057],[22.577,50.5043],[22.546,50.4857],[22.5065,50.4841],[22.5862,50.4773],[22.5303,50.4471],[22.5073,50.4675],[22.5043,50.4552],[22.4445,50.4621],[22.4592,50.434],[22.4462,50.419],[22.4119,50.4234],[22.403,50.3952],[22.4372,50.3997],[22.4529,50.3886],[22.4552,50.3668],[22.507,50.3436],[22.5437,50.3563]]]}},{"type":"Feature","properties":{"name":"małopolskie"},"geometry":{"type":"Polygon","coordinates":[[[20.5632,50.1997],[20.5724,50.1866],[20.634,50.2117],[20.6744,50.2019],[20.6829,50.217],[20.7295,50.2309],[20.729,50.2515],[20.7899,50.2896],[20.8358,50.2733],[20.853,50.2952],[20.8953,50.3066],[20.9319,50.2981],[20.9552,50.316],[21.0555,50.3155],[21.132,50.3543],[21.154,50.3514],[21.1766,50.3298],[21.1901,50.3521],[21.2088,50.3549],[21.2225,50.3109],[21.1838,50.298],[21.1461,50.2569],[21.1827,50.24],[21.1422,50.2377],[21.1709,50.2086],[21.1708,50.1769],[21.1524,50.1476],[21.1758,50.1426],[21.1462,50.13],[21.195,50.1198],[21.1769,50.112],[21.199,50.095],[21.1601,50.0895],[21.1797,50.0761],[21.145,50.0531],[21.1929,50.0293],[21.1544,50.0034],[21.1507,49.9761],[21.1791,49.9287],[21.2847,49.9241],[21.2796,49.892],[21.2261,49.8855],[21.2254,49.8523],[21.2975,49.8428],[21.3489,49.8147],[21.3084,49.7961],[21.2791,49.8053],[21.2418,49.7761],[21.2578,49.7521],[21.3125,49.7478],[21.3314,49.7188],[21.3204,49.6984],[21.3487,49.6927],[21.3417,49.6593],[21.3627,49.6336],[21.3268,49.5922],[21.3806,49.5694],[21.3586,49.5447],[21.3805,49.5391],[21.3929,49.5115],[21.4186,49.4976],[21.3889,49.4854],[21.4114,49.4678],[21.3922,49.4558],[21.3987,49.4338],[21.2775,49.4609],[21.2329,49.4367],[21.208,49.4025],[21.1802,49.4023],[21.124,49.4366],[21.1137,49.4239],[21.0565,49.4217],[21.0472,49.4169],[21.0543,49.4042],[21.1041,49.3764],[21.0941,49.3651],[21.0423,49.3648],[20.9891,49.3284],[20.9866,49.3066],[20.9256,49.2961],[20.9037,49.3235],[20.8732,49.3197],[20.8824,49.3332],[20.8653,49.3476],[20.8366,49.334],[20.7965,49.3438],[20.7983,49.3591],[20.8093,49.3594],[20.7835,49.3605],[20.7855,49.3744],[20.7592,49.3732],[20.7475,49.391],[20.7582,49.4002],[20.7229,49.4197],[20.6461,49.4007],[20.6149,49.4178],[20.6136,49.4018],[20.5762,49.3762],[20.4716,49.4155],[20.4326,49.4177],[20.4333,49.3966],[20.4169,49.4058],[20.393,49.3906],[20.3757,49.4079],[20.3617,49.3982],[20.325,49.403],[20.3169,49.3447],[20.2208,49.3518],[20.1706,49.3277],[20.1758,49.3141],[20.1578,49.3029],[20.146,49.318],[20.1249,49.2707],[20.1008,49.2501],[20.0882,49.1797],[20.0205,49.2015],[19.9816,49.2318],[19.9322,49.2365],[19.9034,49.231],[19.9024,49.2134],[19.8694,49.1958],[19.7843,49.1993],[19.7594,49.2122],[19.7668,49.2366],[19.7925,49.268],[19.8228,49.2768],[19.7927,49.2989],[19.805,49.3227],[19.7906,49.4107],[19.7463,49.4079],[19.7176,49.3864],[19.6996,49.3997],[19.6317,49.4088],[19.6486,49.4353],[19.6378,49.4405],[19.6411,49.4576],[19.6114,49.4469],[19.5815,49.4554],[19.5304,49.5358],[19.5293,49.573],[19.4684,49.5965],[19.4808,49.6244],[19.4685,49.6439],[19.4778,49.6608],[19.4594,49.6764],[19.4117,49.6728],[19.3709,49.693],[19.445,49.734],[19.4314,49.7622],[19.4154,49.7749],[19.3995,49.7617],[19.366,49.7778],[19.3168,49.7779],[19.2866,49.8164],[19.2946,49.85],[19.2709,49.8607],[19.2026,49.8716],[19.193,49.8584],[19.1664,49.8562],[19.1581,49.8671],[19.1962,49.8874],[19.1849,49.9501],[19.1409,49.938],[19.0832,49.95],[19.1241,49.9633],[19.1102,49.9726],[19.1232,49.9885],[19.1113,49.9959],[19.142,50.024],[19.1361,50.0347],[19.1461,50.0317],[19.1498,50.0519],[19.2336,50.0657],[19.2121,50.0768],[19.2504,50.1317],[19.2612,50.1323],[19.2592,50.117],[19.2778,50.1197],[19.2706,50.1437],[19.3499,50.1505],[19.3472,50.1709],[19.3676,50.1792],[19.3346,50.188],[19.4154,50.2009],[19.442,50.2266],[19.3237,50.2595],[19.3632,50.2606],[19.4003,50.299],[19.4143,50.298],[19.3984,50.3084],[19.4153,50.3317],[19.451,50.3189],[19.4839,50.3236],[19.4831,50.3556],[19.4565,50.3663],[19.4917,50.366],[19.4876,50.397],[19.536,50.4203],[19.5734,50.4117],[19.566,50.4073],[19.6582,50.4082],[19.6717,50.4158],[19.665,50.4266],[19.6943,50.4351],[19.7008,50.4497],[19.8535,50.4351],[19.853,50.4474],[19.8998,50.4534],[19.8921,50.4662],[19.9005,50.4735],[19.973,50.4755],[19.95,50.5048],[19.9709,50.5205],[20.031,50.5006],[20.0763,50.5096],[20.097,50.4961],[20.0871,50.4896],[20.1056,50.486],[20.2054,50.4957],[20.2258,50.4781],[20.2729,50.4699],[20.2637,50.4303],[20.2899,50.4191],[20.3058,50.389],[20.3209,50.3845],[20.3175,50.3707],[20.3391,50.3596],[20.2936,50.3491],[20.3053,50.3359],[20.2926,50.3222],[20.3279,50.3186],[20.3491,50.2989],[20.341,50.2871],[20.3621,50.2846],[20.3309,50.2675],[20.3975,50.2415],[20.3743,50.2272],[20.377,50.2126],[20.4102,50.2118],[20.4155,50.1912],[20.455,50.1992],[20.4735,50.1908],[20.4697,50.2008],[20.5129,50.186],[20.5632,50.1997]]]}},{"type":"Feature","properties":{"name":"pomorskie"},"geometry":{"type":"Polygon","coordinates":[[[19.6487,54.4533],[19.6357,54.3922],[19.2583,54.2817],[19.2534,54.2703],[19.2998,54.2464],[19.3259,54.2],[19.247,54.1672],[19.2576,54.1508],[19.2173,54.1156],[19.2555,54.0857],[19.2207,54.0695],[19.2747,54.053],[19.2822,54.0418],[19.258,54.0352],[19.279,54.0129],[19.3201,54.0271],[19.3602,54.0045],[19.4107,53.9994],[19.3777,53.985],[19.3658,53.9608],[19.3727,53.9358],[19.4168,53.9263],[19.4892,53.9466],[19.576,53.9483],[19.5813,53.9271],[19.5559,53.9257],[19.5572,53.8978],[19.4796,53.8168],[19.5004,53.8066],[19.4719,53.7849],[19.4806,53.7752],[19.4542,53.7976],[19.3218,53.8131],[19.2997,53.782],[19.3042,53.754],[19.2129,53.6914],[19.2237,53.6687],[19.2137,53.6697],[19.2123,53.6434],[19.1791,53.6404],[19.1304,53.6083],[19.1293,53.5883],[18.9946,53.5955],[18.9268,53.5917],[18.9052,53.5776],[18.9086,53.5915],[18.89,53.5995],[18.7607,53.6047],[18.7393,53.6446],[18.7824,53.704],[18.7255,53.6838],[18.6965,53.6999],[18.6536,53.6948],[18.6306,53.6746],[18.5709,53.6754],[18.5834,53.6594],[18.5534,53.6551],[18.5145,53.681],[18.5232,53.6915],[18.5158,53.704],[18.4705,53.7037],[18.4602,53.6864],[18.2638,53.701],[18.2542,53.7113],[18.2767,53.7207],[18.2676,53.7423],[18.219,53.7398],[18.2169,53.7518],[18.196,53.7389],[18.2015,53.7562],[18.1789,53.7435],[18.1549,53.7532],[18.1518,53.7682],[18.1108,53.7582],[18.109,53.7691],[18.072,53.7811],[18.0318,53.7251],[17.9912,53.7245],[17.9486,53.7473],[17.8636,53.7582],[17.9041,53.7218],[17.8925,53.7174],[17.8985,53.7106],[17.8072,53.6793],[17.7631,53.6948],[17.7638,53.6836],[17.7407,53.678],[17.7329,53.6479],[17.7119,53.6362],[17.7197,53.617],[17.711,53.609],[17.7351,53.6137],[17.7304,53.5929],[17.6688,53.6018],[17.655,53.5887],[17.6742,53.5836],[17.672,53.5702],[17.6044,53.5969],[17.5793,53.5785],[17.545,53.58],[17.5146,53.6178],[17.4466,53.6014],[17.422,53.5841],[17.4132,53.5608],[17.4228,53.5375],[17.387,53.4911],[17.3412,53.4953],[17.3245,53.513],[17.3055,53.5127],[17.3049,53.5285],[17.2707,53.5372],[17.1614,53.5278],[17.0898,53.5427],[17.0585,53.5204],[16.9998,53.518],[16.9914,53.529],[17.0065,53.5346],[17.0005,53.5519],[16.9811,53.5568],[16.9532,53.5419],[16.9405,53.5841],[16.8962,53.6211],[16.8773,53.7191],[16.8577,53.7471],[16.9307,53.7772],[16.9482,53.8052],[16.9095,53.8018],[16.9104,53.8199],[16.8728,53.8296],[16.8608,53.8523],[16.8925,53.8788],[16.9765,53.8796],[16.9821,53.9049],[16.8587,53.9469],[16.88,53.9637],[16.8423,53.9979],[16.8151,54.0048],[16.8025,53.9872],[16.8142,53.9799],[16.7878,53.9802],[16.8014,54.004],[16.7831,54.0241],[16.8119,54.0617],[16.8126,54.0731],[16.7923,54.0792],[16.8046,54.1161],[16.779,54.1192],[16.7743,54.1551],[16.731,54.1784],[16.7327,54.2037],[16.7114,54.2139],[16.7301,54.2317],[16.8651,54.261],[16.8543,54.3076],[16.8139,54.3186],[16.8281,54.3458],[16.8078,54.3705],[16.8586,54.3826],[16.8244,54.4157],[16.8411,54.4384],[16.8221,54.4537],[16.8275,54.4648],[16.8107,54.4819],[16.7612,54.4858],[16.7392,54.5177],[16.7475,54.5304],[16.6991,54.5692],[16.8951,54.5931],[17.0508,54.6697],[17.2419,54.7296],[17.3435,54.7482],[17.6268,54.7773],[17.9678,54.8323],[18.3294,54.8353],[18.7332,54.6819],[18.8244,54.6256],[18.8285,54.6062],[18.809,54.5933],[18.7039,54.6866],[18.427,54.7879],[18.3964,54.7464],[18.3948,54.7287],[18.473,54.6946],[18.4689,54.6337],[18.5155,54.6362],[18.5119,54.6139],[18.5597,54.5506],[18.5616,54.5174],[18.5511,54.5134],[18.5691,54.4853],[18.5674,54.4512],[18.6364,54.4099],[18.7265,54.4057],[18.7315,54.3939],[18.7079,54.3903],[18.7272,54.3763],[18.8978,54.3468],[18.9494,54.3634],[18.9895,54.3451],[19.2246,54.3543],[19.4072,54.3809],[19.5461,54.4185],[19.6377,54.4592],[19.6487,54.4533]]]}},{"type":"Feature","properties":{"name":"warmińsko-mazurskie"},"geometry":{"type":"Polygon","coordinates":[[[22.792,54.3633],[22.8061,54.3495],[22.7765,54.328],[22.7953,54.3249],[22.7791,54.2936],[22.7513,54.2982],[22.6945,54.2754],[22.6447,54.2878],[22.6107,54.2599],[22.576,54.2672],[22.566,54.2498],[22.5319,54.2489],[22.5188,54.2178],[22.4766,54.2013],[22.5103,54.1908],[22.5038,54.1805],[22.5191,54.1613],[22.5369,54.1604],[22.5471,54.1377],[22.5914,54.1507],[22.6368,54.1066],[22.6355,54.093],[22.6038,54.0819],[22.5999,54.0528],[22.6699,54.0296],[22.6965,53.9735],[22.7816,53.9197],[22.779,53.8656],[22.7267,53.8332],[22.7268,53.8039],[22.7035,53.7673],[22.6408,53.7476],[22.629,53.7574],[22.6068,53.717],[22.5847,53.7343],[22.5141,53.6977],[22.4676,53.699],[22.473,53.6631],[22.4406,53.6648],[22.4448,53.6723],[22.423,53.6815],[22.3266,53.6318],[22.2808,53.6217],[22.1747,53.5578],[22.054,53.5275],[22.0307,53.4971],[21.9899,53.5221],[21.9235,53.5085],[21.8811,53.4613],[21.6867,53.4928],[21.4347,53.4632],[21.4465,53.4475],[21.4252,53.4503],[21.4459,53.4393],[21.4365,53.4331],[21.3877,53.4308],[21.3516,53.4143],[21.3026,53.4239],[21.2947,53.4086],[21.2815,53.4268],[21.2535,53.4206],[21.0558,53.3346],[20.9976,53.3618],[20.9633,53.35],[20.9363,53.3598],[20.9095,53.3427],[20.9269,53.3202],[20.9065,53.3207],[20.9043,53.3094],[20.8722,53.3211],[20.8513,53.2927],[20.7425,53.318],[20.7413,53.3053],[20.7166,53.3121],[20.7139,53.2999],[20.6924,53.3026],[20.6572,53.2515],[20.6119,53.2523],[20.5958,53.2344],[20.5749,53.2404],[20.5619,53.2265],[20.5315,53.2324],[20.5256,53.2228],[20.4584,53.2468],[20.3763,53.1774],[20.3245,53.16],[20.361,53.1554],[20.3538,53.1471],[20.2902,53.1391],[20.1653,53.1558],[20.1405,53.1413],[20.1042,53.1681],[19.9782,53.1439],[19.9074,53.177],[19.9179,53.2065],[19.8931,53.2132],[19.8254,53.1733],[19.8411,53.1411],[19.7616,53.1518],[19.7365,53.2032],[19.7527,53.2126],[19.7436,53.2282],[19.6895,53.2339],[19.6833,53.2584],[19.7306,53.2709],[19.7122,53.2886],[19.7181,53.3021],[19.6851,53.3041],[19.6901,53.3363],[19.6416,53.3446],[19.5201,53.3304],[19.5287,53.3527],[19.5199,53.3703],[19.4287,53.3592],[19.4474,53.3756],[19.3938,53.3881],[19.3689,53.4129],[19.3074,53.4115],[19.2917,53.3851],[19.2592,53.3965],[19.2317,53.4146],[19.2546,53.4315],[19.2411,53.4409],[19.2465,53.4553],[19.2258,53.4531],[19.2366,53.4675],[19.2256,53.4888],[19.1892,53.5116],[19.2199,53.5283],[19.2079,53.5481],[19.1893,53.5478],[19.1997,53.5701],[19.1293,53.5883],[19.1304,53.6083],[19.1791,53.6404],[19.2123,53.6434],[19.2137,53.6697],[19.2237,53.6687],[19.2129,53.6914],[19.3042,53.754],[19.2997,53.782],[19.3218,53.8131],[19.4542,53.7976],[19.4806,53.7752],[19.4719,53.7849],[19.5004,53.8066],[19.4796,53.8168],[19.5572,53.8978],[19.5559,53.9257],[19.5813,53.9271],[19.576,53.9483],[19.4892,53.9466],[19.4168,53.9263],[19.3727,53.9358],[19.3658,53.9608],[19.3777,53.985],[19.4107,53.9994],[19.3602,54.0045],[19.3201,54.0271],[19.279,54.0129],[19.258,54.0352],[19.2822,54.0418],[19.2747,54.053],[19.2207,54.0695],[19.2555,54.0857],[19.2173,54.1156],[19.2576,54.1508],[19.247,54.1672],[19.3259,54.2],[19.2998,54.2464],[19.2534,54.2703],[19.2583,54.2817],[19.6357,54.3922],[19.6487,54.4533],[20.332,54.4011],[20.6311,54.3663],[20.9513,54.3571],[21.4461,54.3182],[22.792,54.3633]]]}},{"type":"Feature","properties":{"name":"łódzkie"},"geometry":{"type":"Polygon","coordinates":[[[19.9927,51.1341],[19.9818,51.0731],[20.0454,51.0686],[20.0562,51.0577],[20.049,51.0115],[20.0326,50.9953],[20.0363,50.9732],[20.0175,50.9624],[19.958,50.9903],[19.9484,51.0131],[19.9357,51.0111],[19.9369,51.0246],[19.8972,51.0286],[19.8777,51.0481],[19.8635,51.0047],[19.8279,50.9668],[19.8488,50.9357],[19.8361,50.9168],[19.7931,50.9063],[19.7866,50.8871],[19.7279,50.8433],[19.695,50.8436],[19.6614,50.8545],[19.6599,50.8754],[19.6139,50.8773],[19.5744,50.908],[19.5092,50.8811],[19.4711,50.8859],[19.4697,50.9175],[19.438,50.9439],[19.4322,50.9649],[19.4034,50.9749],[19.4107,50.9807],[19.3921,51.0009],[19.3562,50.9926],[19.3622,51.0039],[19.3266,51.0123],[19.3227,51.0462],[19.2614,51.0311],[19.249,51.04],[19.2437,51.0225],[19.257,51.003],[19.2043,50.9824],[19.1449,51.0018],[19.1497,51.0096],[19.1236,50.9996],[19.089,51.0335],[19.0497,51.0264],[19.0563,51.0399],[19.0167,51.0519],[19.0116,51.0664],[18.923,51.0994],[18.8933,51.0602],[18.8565,51.0764],[18.6607,51.0546],[18.6236,51.0772],[18.5776,51.082],[18.5481,51.1411],[18.5208,51.1403],[18.5197,51.108],[18.4895,51.0907],[18.4645,51.12],[18.4359,51.1143],[18.3672,51.1388],[18.3052,51.1353],[18.2596,51.1576],[18.1869,51.1571],[18.1627,51.1702],[18.1764,51.1908],[18.1622,51.1923],[18.1621,51.2055],[18.1802,51.2234],[18.1672,51.2438],[18.1726,51.2683],[18.1068,51.2628],[18.1169,51.2775],[18.105,51.2855],[18.12,51.2866],[18.1128,51.3108],[18.0745,51.3499],[18.1351,51.3608],[18.1493,51.3914],[18.193,51.3876],[18.2113,51.423],[18.1882,51.4412],[18.2127,51.4543],[18.3263,51.4198],[18.3562,51.4567],[18.3518,51.4698],[18.3828,51.4773],[18.3801,51.5182],[18.3585,51.5362],[18.3739,51.5479],[18.3648,51.5645],[18.3768,51.6001],[18.3487,51.6014],[18.3685,51.6169],[18.3528,51.6333],[18.37,51.6343],[18.3813,51.6508],[18.3553,51.6605],[18.3642,51.6817],[18.4122,51.7006],[18.4005,51.7223],[18.4235,51.7359],[18.4028,51.7504],[18.4172,51.7485],[18.4322,51.7648],[18.4093,51.7917],[18.4443,51.7985],[18.4393,51.8255],[18.4719,51.8199],[18.4627,51.8298],[18.4713,51.8503],[18.5073,51.8544],[18.5155,51.8342],[18.5949,51.8481],[18.6132,51.8344],[18.6886,51.8225],[18.6968,51.8657],[18.7233,51.8721],[18.7679,51.9278],[18.7361,51.9446],[18.7382,51.9627],[18.7298,51.9547],[18.715,51.9682],[18.7339,51.9726],[18.7171,51.9929],[18.7346,52.0027],[18.7165,52.0323],[18.7183,52.0657],[18.7528,52.0765],[18.7865,52.061],[18.8278,52.0642],[18.8667,52.0875],[18.9251,52.0793],[18.9308,52.1043],[18.944,52.1033],[18.9498,52.1193],[18.9111,52.1327],[18.9241,52.1962],[18.9922,52.2145],[19.0898,52.2067],[19.0709,52.2284],[19.105,52.2415],[19.1003,52.2659],[19.0302,52.2711],[19.0457,52.2957],[19.0312,52.318],[19.045,52.3185],[19.0471,52.3328],[19.0992,52.3479],[19.1596,52.3408],[19.1996,52.36],[19.2183,52.3412],[19.21,52.3656],[19.2367,52.3622],[19.2799,52.394],[19.308,52.3874],[19.2906,52.3726],[19.3234,52.369],[19.3222,52.3484],[19.4261,52.3373],[19.4549,52.3501],[19.5021,52.3333],[19.4915,52.3203],[19.5169,52.3051],[19.616,52.2882],[19.6137,52.2764],[19.6311,52.2778],[19.6238,52.264],[19.6392,52.2551],[19.6895,52.2595],[19.6994,52.2786],[19.7371,52.2584],[19.816,52.2839],[19.8475,52.2721],[19.8777,52.2877],[19.8617,52.2909],[19.8911,52.3113],[19.9361,52.2997],[19.9651,52.2683],[20.0421,52.2577],[20.0376,52.2467],[20.0805,52.233],[20.0621,52.1881],[20.091,52.1526],[20.1164,52.1438],[20.1606,52.1513],[20.1966,52.1172],[20.2519,52.1173],[20.2689,52.1007],[20.2699,52.0771],[20.2433,52.0731],[20.2531,52.0553],[20.1987,52.0256],[20.2332,52.0019],[20.2624,52.0004],[20.2551,51.9956],[20.2715,51.9713],[20.294,51.9671],[20.2407,51.951],[20.2435,51.9334],[20.31,51.935],[20.3116,51.9185],[20.2954,51.9123],[20.3182,51.9123],[20.3239,51.922],[20.3726,51.9236],[20.3815,51.9425],[20.4136,51.9304],[20.4201,51.9479],[20.4394,51.9435],[20.4755,51.9311],[20.4909,51.9104],[20.4794,51.9],[20.4983,51.8895],[20.5708,51.888],[20.5664,51.8763],[20.5857,51.8696],[20.5906,51.8494],[20.6054,51.8496],[20.5997,51.8274],[20.619,51.8277],[20.6077,51.8161],[20.5575,51.8176],[20.582,51.8109],[20.5789,51.7936],[20.595,51.7693],[20.5826,51.748],[20.6584,51.7242],[20.6532,51.6772],[20.5966,51.6572],[20.5227,51.6657],[20.5145,51.6855],[20.4877,51.6836],[20.467,51.6972],[20.3904,51.6599],[20.3953,51.647],[20.385,51.6417],[20.4187,51.6303],[20.4249,51.6116],[20.4151,51.6044],[20.4322,51.5953],[20.4333,51.5753],[20.4607,51.5744],[20.4677,51.5609],[20.452,51.5044],[20.5199,51.5098],[20.534,51.4627],[20.4877,51.441],[20.4865,51.4125],[20.4467,51.41],[20.4168,51.3621],[20.4327,51.3343],[20.3642,51.3114],[20.3904,51.2722],[20.3753,51.2618],[20.3797,51.246],[20.3711,51.2366],[20.3308,51.2577],[20.3101,51.2431],[20.2426,51.2573],[20.2419,51.2436],[20.256,51.2367],[20.2513,51.2216],[20.2644,51.2191],[20.2324,51.2013],[20.2172,51.1991],[20.2146,51.2096],[20.1958,51.1968],[20.2012,51.2041],[20.1788,51.2071],[20.1795,51.1955],[20.1195,51.1893],[20.0258,51.2004],[19.9941,51.184],[20.0258,51.1647],[19.9927,51.1341]]]}},{"type":"Feature","properties":{"name":"mazowieckie"},"geometry":{"type":"Polygon","coordinates":[[[22.0084,52.9037],[22.0039,52.8779],[22.035,52.8851],[22.0266,52.8648],[22.0379,52.8511],[22.084,52.8418],[22.1014,52.862],[22.1242,52.8427],[22.1741,52.8581],[22.2097,52.8545],[22.2072,52.883],[22.2527,52.8764],[22.2794,52.8861],[22.292,52.8709],[22.2783,52.8481],[22.3074,52.8577],[22.3051,52.8393],[22.2747,52.832],[22.2612,52.8442],[22.2425,52.8328],[22.2766,52.7836],[22.308,52.7742],[22.2966,52.7664],[22.311,52.7552],[22.3037,52.748],[22.3242,52.7421],[22.3469,52.7574],[22.3446,52.7778],[22.3826,52.7776],[22.3788,52.7944],[22.4538,52.7882],[22.4607,52.7707],[22.4353,52.6954],[22.4503,52.6527],[22.4736,52.6462],[22.4086,52.6097],[22.4575,52.5866],[22.5267,52.5212],[22.512,52.4813],[22.5297,52.4616],[22.5542,52.4632],[22.5421,52.423],[22.5792,52.3938],[22.705,52.3925],[22.7228,52.3833],[22.7257,52.3667],[22.7526,52.384],[22.8495,52.3586],[22.9398,52.3716],[22.9643,52.3648],[22.9948,52.3323],[23.0452,52.3249],[23.0589,52.3041],[23.0514,52.2854],[23.0755,52.2821],[23.1123,52.3001],[23.1284,52.2878],[23.0781,52.2349],[23.0313,52.2165],[23.0397,52.1839],[23.0715,52.1704],[22.977,52.1722],[22.9859,52.1589],[22.9331,52.1365],[22.9682,52.1154],[22.9501,52.1022],[22.928,52.1116],[22.893,52.102],[22.8875,52.092],[22.9074,52.077],[22.9021,52.0635],[22.8499,52.0656],[22.8307,52.0814],[22.7835,52.0686],[22.7609,52.0912],[22.701,52.107],[22.6987,52.1175],[22.6481,52.0906],[22.6667,52.0795],[22.6613,52.0366],[22.6229,52.0187],[22.6083,52.037],[22.5475,52.0445],[22.5054,52.0699],[22.4833,52.0672],[22.4335,52.0175],[22.3804,52.0166],[22.3444,51.996],[22.316,52.014],[22.3227,52.0369],[22.2975,52.0374],[22.2537,52.0045],[22.1519,52.0284],[22.1386,52.0068],[22.1145,52.0015],[22.0298,52.0215],[21.9689,51.9892],[21.934,51.9932],[21.8803,51.971],[21.8664,51.9434],[21.89,51.9284],[21.8856,51.9119],[21.908,51.903],[21.9128,51.8865],[21.8972,51.8832],[21.8904,51.8571],[21.8483,51.8508],[21.8453,51.8412],[21.8606,51.8285],[21.9274,51.8379],[21.9564,51.7938],[21.8973,51.7688],[21.8666,51.7687],[21.8353,51.7444],[21.8708,51.7328],[21.8768,51.7117],[21.9033,51.7042],[21.88,51.6936],[21.8778,51.6766],[21.845,51.6732],[21.8308,51.6483],[21.7719,51.6477],[21.7492,51.612],[21.7268,51.6181],[21.7221,51.6374],[21.6511,51.6598],[21.6362,51.6543],[21.6401,51.6259],[21.6155,51.6176],[21.6494,51.6023],[21.6565,51.5817],[21.6961,51.5701],[21.8238,51.5622],[21.8553,51.5104],[21.8488,51.4836],[21.8732,51.4749],[21.8405,51.4182],[21.8014,51.4276],[21.7613,51.4058],[21.7685,51.3911],[21.7917,51.3954],[21.816,51.3716],[21.8378,51.3785],[21.8537,51.3518],[21.8283,51.3393],[21.8366,51.3329],[21.8234,51.3033],[21.7831,51.2937],[21.7868,51.285],[21.8349,51.2889],[21.8601,51.2747],[21.8082,51.2543],[21.8166,51.2306],[21.7832,51.1842],[21.7925,51.1801],[21.7849,51.1504],[21.7994,51.1348],[21.7905,51.1161],[21.803,51.0721],[21.7851,51.0689],[21.779,51.042],[21.759,51.0374],[21.7052,51.0427],[21.6763,51.078],[21.6121,51.076],[21.6302,51.0634],[21.5451,51.0474],[21.5328,51.0623],[21.5124,51.0593],[21.4996,51.0451],[21.5169,51.0365],[21.4899,51.0397],[21.5046,51.0317],[21.4636,51.0131],[21.3818,51.0406],[21.3831,51.0583],[21.3536,51.0671],[21.3555,51.0853],[21.1528,51.0803],[21.154,51.1255],[21.1641,51.1285],[21.1395,51.1256],[21.0912,51.1551],[21.1199,51.1887],[21.07,51.2114],[21.0734,51.1858],[21.0566,51.1571],[21.0229,51.1586],[20.9985,51.1445],[21.0008,51.1596],[20.9207,51.1953],[20.8798,51.1544],[20.8216,51.1785],[20.813,51.1458],[20.7708,51.1485],[20.7184,51.1727],[20.6974,51.149],[20.6855,51.1512],[20.6853,51.1736],[20.7027,51.1849],[20.6908,51.2055],[20.633,51.2234],[20.6072,51.2468],[20.5436,51.2313],[20.5391,51.2546],[20.5248,51.2604],[20.5333,51.2765],[20.4945,51.2988],[20.5174,51.3166],[20.5086,51.3301],[20.431,51.3394],[20.4168,51.3616],[20.4503,51.4144],[20.4865,51.4125],[20.4877,51.441],[20.534,51.4627],[20.5199,51.5098],[20.452,51.5044],[20.4677,51.5609],[20.4607,51.5744],[20.4333,51.5753],[20.4322,51.5953],[20.4151,51.6044],[20.4249,51.6116],[20.4187,51.6303],[20.385,51.6417],[20.3971,51.67],[20.467,51.6972],[20.4877,51.6836],[20.5145,51.6855],[20.5227,51.6657],[20.6203,51.6576],[20.6561,51.6866],[20.6584,51.7242],[20.5826,51.748],[20.595,51.7693],[20.5789,51.7936],[20.582,51.8109],[20.5575,51.8188],[20.6198,51.8214],[20.5997,51.8274],[20.6054,51.8496],[20.5906,51.8494],[20.5857,51.8696],[20.5664,51.8763],[20.5708,51.888],[20.4983,51.8895],[20.4794,51.9],[20.4909,51.9104],[20.4755,51.9311],[20.4201,51.9479],[20.4136,51.9304],[20.3815,51.9425],[20.3726,51.9236],[20.3239,51.922],[20.3182,51.9123],[20.2954,51.9123],[20.3116,51.9185],[20.31,51.935],[20.2435,51.9334],[20.2407,51.951],[20.294,51.9671],[20.2715,51.9713],[20.2551,51.9956],[20.2624,52.0004],[20.2332,52.0019],[20.1987,52.0256],[20.2531,52.0553],[20.2433,52.0731],[20.2699,52.0771],[20.2689,52.1007],[20.2519,52.1173],[20.1966,52.1172],[20.1606,52.1513],[20.1164,52.1438],[20.091,52.1526],[20.0621,52.1881],[20.0805,52.233],[20.0376,52.2467],[20.0421,52.2577],[19.9651,52.2683],[19.9361,52.2997],[19.8911,52.3113],[19.8617,52.2909],[19.8777,52.2877],[19.8475,52.2721],[19.816,52.2839],[19.7371,52.2584],[19.6994,52.2786],[19.6895,52.2595],[19.6371,52.2555],[19.6238,52.264],[19.6311,52.2778],[19.6137,52.2764],[19.616,52.2882],[19.5169,52.3051],[19.4915,52.3203],[19.5021,52.3333],[19.4549,52.3501],[19.4261,52.3373],[19.3222,52.3484],[19.3234,52.369],[19.2906,52.3726],[19.3089,52.3816],[19.2804,52.4055],[19.2961,52.4246],[19.2592,52.4426],[19.3191,52.4487],[19.3389,52.4798],[19.3581,52.4813],[19.3636,52.5038],[19.3957,52.5129],[19.3196,52.5349],[19.3488,52.5281],[19.3554,52.5371],[19.3411,52.5671],[19.3865,52.5715],[19.3983,52.5934],[19.421,52.602],[19.4261,52.6114],[19.3679,52.6283],[19.403,52.6445],[19.4154,52.6713],[19.4509,52.6722],[19.4364,52.6826],[19.4413,52.723],[19.5271,52.7049],[19.5033,52.7135],[19.4984,52.7325],[19.5231,52.7486],[19.4975,52.7495],[19.5042,52.7677],[19.4674,52.7865],[19.4657,52.8045],[19.4238,52.8156],[19.4257,52.8408],[19.4735,52.8503],[19.4634,52.8559],[19.475,52.8654],[19.5158,52.8602],[19.4586,52.9067],[19.4719,52.9172],[19.4508,52.9254],[19.4449,52.9475],[19.5289,52.9364],[19.5825,52.9569],[19.5547,52.9901],[19.6811,52.9565],[19.6799,52.9784],[19.6649,52.9868],[19.6903,53.0215],[19.6522,53.0378],[19.6468,53.0662],[19.6616,53.0694],[19.6461,53.0775],[19.6342,53.1117],[19.6671,53.1061],[19.6847,53.1231],[19.7105,53.1215],[19.712,53.1347],[19.7326,53.1445],[19.7776,53.155],[19.8411,53.1411],[19.8254,53.1733],[19.8931,53.2132],[19.9179,53.2065],[19.9074,53.177],[19.9782,53.1439],[20.1042,53.1681],[20.1405,53.1413],[20.1653,53.1558],[20.2902,53.1391],[20.3538,53.1471],[20.361,53.1554],[20.3245,53.16],[20.3763,53.1774],[20.4584,53.2468],[20.4737,53.2342],[20.5547,53.2245],[20.5749,53.2404],[20.6091,53.239],[20.6119,53.2523],[20.6572,53.2515],[20.6924,53.3026],[20.7139,53.2999],[20.7166,53.3121],[20.7387,53.3046],[20.7425,53.318],[20.7646,53.3156],[20.8513,53.2927],[20.8722,53.3211],[20.9043,53.3094],[20.9065,53.3207],[20.9269,53.3202],[20.9095,53.3427],[20.9363,53.3598],[20.9633,53.35],[20.9976,53.3618],[21.0558,53.3346],[21.2535,53.4206],[21.2815,53.4268],[21.2947,53.4086],[21.3026,53.4239],[21.3516,53.4143],[21.445,53.4373],[21.4248,53.4493],[21.4459,53.4459],[21.4314,53.4625],[21.613,53.4808],[21.5976,53.4784],[21.614,53.4623],[21.593,53.4614],[21.625,53.4285],[21.6241,53.407],[21.6524,53.3972],[21.6614,53.3864],[21.6544,53.3722],[21.684,53.3681],[21.656,53.3528],[21.6694,53.3361],[21.6523,53.3313],[21.6928,53.3358],[21.6889,53.3272],[21.7354,53.3127],[21.6833,53.3052],[21.6581,53.3161],[21.6611,53.295],[21.6451,53.2835],[21.6598,53.2778],[21.6583,53.2618],[21.6227,53.2664],[21.6891,53.215],[21.6696,53.2083],[21.7076,53.1641],[21.6946,53.138],[21.7362,53.1092],[21.8082,53.1147],[21.8726,53.0588],[21.8982,53.0607],[21.9188,53.079],[21.9379,53.075],[21.9226,53.0462],[21.9407,53.038],[21.8977,53.0458],[21.8757,53.0163],[21.9187,52.9889],[22.0018,52.9723],[21.9884,52.9574],[22.0288,52.9385],[21.9917,52.9196],[22.0084,52.9037]]]}},{"type":"Feature","properties":{"name":"lubelskie"},"geometry":{"type":"Polygon","coordinates":[[[21.89,51.9284],[21.8664,51.9434],[21.8803,51.971],[21.934,51.9932],[21.9689,51.9892],[22.0318,52.0218],[22.1145,52.0015],[22.1386,52.0068],[22.1519,52.0284],[22.2537,52.0045],[22.2975,52.0374],[22.3227,52.0369],[22.316,52.014],[22.3444,51.996],[22.3804,52.0166],[22.4335,52.0175],[22.4833,52.0672],[22.5054,52.0699],[22.5475,52.0445],[22.6083,52.037],[22.6229,52.0187],[22.6613,52.0366],[22.6667,52.0795],[22.6481,52.0906],[22.6987,52.1175],[22.701,52.107],[22.7609,52.0912],[22.7835,52.0686],[22.8307,52.0814],[22.8499,52.0656],[22.9021,52.0635],[22.9074,52.077],[22.8875,52.092],[22.893,52.102],[22.928,52.1116],[22.9501,52.1022],[22.9682,52.1154],[22.9331,52.1365],[22.9859,52.1589],[22.977,52.1722],[23.0715,52.1704],[23.0397,52.1839],[23.0313,52.2165],[23.0781,52.2349],[23.1277,52.2878],[23.2041,52.2765],[23.1941,52.2395],[23.2037,52.2266],[23.366,52.208],[23.3732,52.1957],[23.3962,52.2006],[23.3988,52.1788],[23.4249,52.1725],[23.4582,52.1846],[23.4671,52.1742],[23.5012,52.1789],[23.487,52.153],[23.5417,52.1285],[23.5491,52.1099],[23.5802,52.1199],[23.6185,52.1086],[23.6116,52.0982],[23.6539,52.0721],[23.6441,52.0658],[23.6555,52.0596],[23.6423,52.0597],[23.6627,52.0399],[23.6573,52.0187],[23.689,51.9919],[23.6654,51.9789],[23.6693,51.9647],[23.6285,51.952],[23.6459,51.9345],[23.6121,51.9188],[23.638,51.893],[23.6223,51.8849],[23.6303,51.8734],[23.6065,51.8755],[23.6175,51.8561],[23.6001,51.8405],[23.6402,51.8048],[23.6309,51.7802],[23.5878,51.7596],[23.559,51.7616],[23.527,51.7298],[23.5474,51.7266],[23.5485,51.7042],[23.5604,51.6984],[23.5489,51.6847],[23.5584,51.6657],[23.5374,51.6446],[23.5487,51.641],[23.5403,51.6019],[23.5777,51.5579],[23.5651,51.5344],[23.6128,51.5288],[23.6247,51.5144],[23.6201,51.4964],[23.6703,51.4825],[23.6763,51.471],[23.6472,51.4595],[23.6494,51.4463],[23.6859,51.4446],[23.6776,51.429],[23.7028,51.4192],[23.6928,51.4145],[23.7027,51.4035],[23.6769,51.3941],[23.6892,51.3882],[23.6786,51.3838],[23.6866,51.3686],[23.6653,51.3668],[23.6562,51.3391],[23.6361,51.3291],[23.6524,51.2993],[23.646,51.2918],[23.6953,51.2914],[23.7266,51.2611],[23.7396,51.2117],[23.8089,51.1846],[23.8242,51.1617],[23.8689,51.1506],[23.8694,51.1294],[23.8496,51.124],[23.8622,51.1125],[23.8572,51.0995],[23.8757,51.0774],[23.9114,51.0742],[23.913,51.0418],[23.9315,51.0379],[23.9159,51.0284],[23.9357,51.0147],[23.915,51.0073],[23.9568,50.9908],[23.9697,50.9509],[24.0523,50.8914],[24.1458,50.8686],[24.1321,50.849],[24.0996,50.8359],[23.9896,50.8375],[23.9577,50.7951],[23.9788,50.7682],[24.0238,50.7662],[24.0111,50.7545],[24.0237,50.7509],[24.017,50.7229],[24.072,50.7206],[24.0622,50.678],[24.0823,50.6748],[24.0911,50.6635],[24.0804,50.6445],[24.0982,50.6374],[24.0913,50.562],[24.0345,50.4448],[24.0058,50.4354],[23.9975,50.4121],[23.8034,50.4048],[23.727,50.388],[23.7031,50.3753],[23.6863,50.3316],[23.6388,50.3205],[23.581,50.266],[23.5479,50.2518],[23.5089,50.2613],[23.5139,50.2788],[23.5011,50.2852],[23.5199,50.2955],[23.4034,50.3014],[23.4358,50.347],[23.3789,50.3683],[23.3828,50.3833],[23.3667,50.3938],[23.3876,50.4054],[23.3581,50.4105],[23.2507,50.3593],[23.2187,50.3883],[23.1798,50.3951],[23.0172,50.2869],[22.8905,50.3015],[22.7506,50.303],[22.7076,50.2914],[22.6359,50.3038],[22.6069,50.3111],[22.6071,50.3264],[22.6869,50.3451],[22.6877,50.3565],[22.5955,50.3487],[22.5656,50.3591],[22.507,50.3436],[22.4552,50.3668],[22.4529,50.3886],[22.4372,50.3997],[22.403,50.3952],[22.4119,50.4234],[22.4462,50.419],[22.4592,50.434],[22.4445,50.4621],[22.5043,50.4552],[22.5073,50.4675],[22.5303,50.4471],[22.5862,50.4773],[22.5065,50.4841],[22.546,50.4857],[22.577,50.5043],[22.5412,50.5057],[22.5288,50.5128],[22.5343,50.5375],[22.5121,50.5389],[22.5385,50.5498],[22.5362,50.5721],[22.5198,50.5832],[22.5058,50.5756],[22.5065,50.5842],[22.4836,50.5757],[22.4653,50.5919],[22.4201,50.5806],[22.3478,50.6145],[22.2497,50.6206],[22.2232,50.6598],[22.1418,50.6697],[22.1691,50.6889],[22.2056,50.754],[22.1523,50.7718],[22.163,50.7973],[22.0521,50.8205],[21.9944,50.7832],[21.9724,50.7878],[21.9495,50.7714],[21.8825,50.7783],[21.8643,50.8027],[21.8665,50.8221],[21.8423,50.8402],[21.8474,50.8617],[21.8129,50.9345],[21.8207,51.0046],[21.8027,51.0253],[21.8264,51.047],[21.7996,51.0762],[21.7905,51.1161],[21.7994,51.1348],[21.7849,51.1504],[21.7925,51.1801],[21.7832,51.1842],[21.8166,51.2306],[21.8082,51.2543],[21.8601,51.2747],[21.7831,51.2937],[21.8195,51.2999],[21.8366,51.3329],[21.8295,51.3412],[21.8537,51.3518],[21.8378,51.3785],[21.816,51.3716],[21.7917,51.3954],[21.7685,51.3911],[21.761,51.4013],[21.8014,51.4276],[21.8405,51.4182],[21.8732,51.4749],[21.8488,51.4836],[21.8553,51.5104],[21.8238,51.5622],[21.6961,51.5701],[21.6565,51.5817],[21.6494,51.6023],[21.6155,51.6176],[21.6401,51.6259],[21.6362,51.6543],[21.6511,51.6598],[21.7221,51.6374],[21.7268,51.6181],[21.7492,51.612],[21.7719,51.6477],[21.8308,51.6483],[21.845,51.6732],[21.8778,51.6766],[21.88,51.6936],[21.9033,51.7042],[21.8768,51.7117],[21.8708,51.7328],[21.8353,51.7444],[21.8666,51.7687],[21.8973,51.7688],[21.9564,51.7938],[21.9274,51.8379],[21.8606,51.8285],[21.8453,51.8412],[21.8483,51.8508],[21.8904,51.8571],[21.8972,51.8832],[21.9128,51.8865],[21.908,51.903],[21.8856,51.9119],[21.89,51.9284]]]}},{"type":"Feature","properties":{"name":"lubuskie"},"geometry":{"type":"Polygon","coordinates":[[[14.9742,51.364],[14.9836,51.374],[14.9582,51.3957],[14.9689,51.3977],[14.9586,51.4312],[14.9742,51.4419],[14.9491,51.4713],[14.8528,51.4893],[14.796,51.5179],[14.7291,51.5314],[14.7289,51.5504],[14.7112,51.5627],[14.7651,51.6078],[14.7533,51.628],[14.7576,51.6615],[14.736,51.6888],[14.6681,51.7258],[14.6451,51.7958],[14.6067,51.804],[14.5901,51.821],[14.5905,51.8387],[14.6124,51.8455],[14.6104,51.8565],[14.6944,51.9021],[14.7213,51.9512],[14.7048,51.9761],[14.7214,51.9938],[14.714,52.0037],[14.7477,52.0313],[14.7452,52.0539],[14.7591,52.0657],[14.6816,52.1166],[14.6796,52.1449],[14.7054,52.1696],[14.6852,52.1941],[14.7084,52.2117],[14.716,52.2355],[14.6927,52.2557],[14.5965,52.2729],[14.5758,52.2886],[14.5849,52.3065],[14.5616,52.3279],[14.5521,52.3741],[14.5344,52.395],[14.5495,52.4336],[14.5793,52.4417],[14.6354,52.4944],[14.6039,52.5313],[14.6391,52.573],[14.5647,52.6269],[14.6296,52.6602],[14.6917,52.6331],[14.7492,52.6444],[14.7524,52.6689],[14.7916,52.6971],[14.7997,52.7375],[14.7912,52.7569],[14.8653,52.792],[14.8679,52.8122],[14.8554,52.8124],[14.851,52.8281],[14.8733,52.8338],[14.8651,52.8466],[14.8875,52.8467],[14.8956,52.8331],[14.9192,52.8439],[14.8904,52.8607],[14.9095,52.8873],[14.9783,52.8661],[14.9908,52.8425],[15.0388,52.8612],[15.0718,52.8306],[15.3293,52.8963],[15.2836,52.9448],[15.2878,52.958],[15.3517,52.9416],[15.39,52.9621],[15.3883,52.9716],[15.5469,53.0145],[15.5722,52.9869],[15.6334,52.9764],[15.6817,52.9973],[15.7211,52.9866],[15.7605,52.9951],[15.778,53.0151],[15.7627,53.0267],[15.807,53.045],[15.7802,53.0605],[15.8216,53.0652],[15.8115,53.0844],[15.86,53.0937],[15.8482,53.1152],[15.9118,53.124],[15.985,53.1142],[15.9809,53.0973],[15.9983,53.087],[15.9896,53.0557],[15.9516,53.0344],[15.9562,52.9765],[15.946,52.9733],[15.9614,52.9708],[15.9798,52.9337],[15.9795,52.909],[15.9673,52.9001],[15.9794,52.8779],[15.9614,52.8693],[15.9741,52.859],[15.8945,52.8258],[15.9032,52.8061],[15.934,52.8041],[15.9383,52.7862],[15.9257,52.7822],[15.9487,52.7561],[15.9455,52.7302],[15.9054,52.7142],[15.7942,52.7081],[15.814,52.6678],[15.7861,52.6677],[15.7771,52.6434],[15.7957,52.6362],[15.7994,52.6226],[15.7846,52.6185],[15.7959,52.6058],[15.836,52.5872],[15.8247,52.5671],[15.8585,52.5449],[15.8348,52.5293],[15.8771,52.5108],[15.8676,52.5026],[15.8929,52.4682],[15.8776,52.4695],[15.8987,52.4493],[15.8519,52.4316],[15.8314,52.4352],[15.8271,52.4546],[15.8042,52.4442],[15.8434,52.403],[15.9009,52.3862],[15.881,52.3508],[15.8919,52.3103],[15.8513,52.2556],[15.8584,52.169],[15.8833,52.1539],[15.875,52.1305],[15.8341,52.1085],[15.8603,52.0865],[15.9243,52.0675],[15.9324,52.0876],[15.9461,52.0877],[16.0028,52.058],[15.9893,52.0457],[15.9944,52.0352],[15.9643,52.0339],[15.965,52.0178],[15.9719,51.9997],[15.988,52.0039],[16.01,51.9815],[16.0606,51.9772],[16.1229,51.9931],[16.1373,51.9544],[16.1239,51.9514],[16.1262,51.9339],[16.1382,51.9255],[16.0989,51.8935],[16.1616,51.8924],[16.2149,51.8698],[16.2558,51.9022],[16.3515,51.8807],[16.3351,51.8711],[16.3871,51.8464],[16.3795,51.8389],[16.4005,51.8378],[16.4018,51.8045],[16.3886,51.7912],[16.4168,51.7828],[16.3771,51.7672],[16.378,51.753],[16.3617,51.7415],[16.3693,51.7288],[16.3476,51.7091],[16.2694,51.6847],[16.2701,51.6635],[16.2515,51.6863],[16.2233,51.6954],[16.2176,51.7146],[16.16,51.7117],[16.1779,51.7638],[16.1335,51.7583],[16.07,51.7826],[16.0352,51.7817],[16.0287,51.8025],[15.9792,51.8023],[15.966,51.7915],[15.9719,51.7825],[16.0086,51.7757],[15.9688,51.7683],[15.9801,51.7453],[15.8695,51.7197],[15.8684,51.6887],[15.8343,51.6722],[15.8572,51.6504],[15.8304,51.6368],[15.834,51.6222],[15.8158,51.6029],[15.8236,51.5727],[15.7038,51.5569],[15.714,51.5174],[15.6789,51.5124],[15.656,51.4724],[15.6347,51.4789],[15.5998,51.4457],[15.5809,51.4531],[15.5959,51.4696],[15.4877,51.5276],[15.4823,51.513],[15.437,51.5273],[15.4058,51.5196],[15.3965,51.531],[15.367,51.494],[15.3821,51.4723],[15.3394,51.4741],[15.3337,51.4516],[15.3433,51.4469],[15.3249,51.4185],[15.3337,51.4099],[15.252,51.449],[15.2009,51.446],[15.2025,51.4626],[15.187,51.464],[15.089,51.4277],[15.0712,51.397],[15.0179,51.3935],[15.0124,51.3634],[14.9742,51.364]]]}}]}